PathFileType	4	(X/Y/Z)	mouse_tracked.trc
DataRate	CameraRate	NumFrames	NumMarkers	Units	OrigDataRate	OrigDataStartFrame	OrigNumFrames
	15.00	15	20	4	m	15.00	1	102
Frame#	Time	handm	wristm	shoulderm	elbow	
X1	Y1	Z1	X2	Y2	Z2	X3	Y3	Z3	X4	Y4	Z4	

0.06	0.0112183197960191	-0.00241094076646964	-0.202010508824954	0.00703108664012923	-0.00157841809597932	-0.20144315513088	-0.00162103119352041	0.010623360321614	-0.196453050600855	-0.000873501356851538	-0.00157778888585935	-0.196752998582375	
0.0666666666666667	0.0112128548866001	-0.00240798089176108	-0.202043145452033	0.00703947027257632	-0.0015724030023036	-0.201451072341135	-0.00160513415365382	0.0106265030903594	-0.196472779189999	-0.000857540101801086	-0.00157171121333788	-0.196708018443344	
0.0733333333333333	0.0112214872746535	-0.0024011765178252	-0.202065880320585	0.00705289438166594	-0.00156113363837329	-0.201482301236066	-0.00162453649995866	0.0106271314092884	-0.196524359124547	-0.000851516924719436	-0.00157359318967961	-0.196717223139364	
0.08	0.0112596512217398	-0.00239812200471915	-0.202123628415716	0.00707840810187355	-0.00157745326308389	-0.201646045135902	-0.001659418857883	0.0106749961365734	-0.196636630676871	-0.000796108618682205	-0.00158526872980512	-0.196582994814765	
0.0866666666666667	0.0112380061281355	-0.00238244437440762	-0.202313972564596	0.00716052468662394	-0.00155060492055309	-0.201685935765592	-0.00159486933486155	0.0106769380494622	-0.196569466516633	-0.00066592651001269	-0.00151484435996114	-0.196467804943685	
0.0933333333333333	0.0112575142021094	-0.00237123200335693	-0.202371173026878	0.00719343808375868	-0.0015519971298702	-0.201737290019517	-0.00155335448567821	0.0107306271577534	-0.196539397995644	-0.000553526008891997	-0.00154676656757394	-0.196393953673396	
0.1	0.0112855144443257	-0.00237393371307877	-0.20246708674186	0.00722318080730611	-0.00153764687563166	-0.201790164310441	-0.00150324810432561	0.0107156375839415	-0.196486440700136	-0.000524656931053196	-0.00155676783063706	-0.196438595822086	
0.106666666666667	0.0113418920127912	-0.00237511534803548	-0.202473648437017	0.00727808626337328	-0.00155297464153127	-0.201762175057261	-0.00150416214744906	0.0106982375588903	-0.196479435025775	-0.00052414826458976	-0.001563865814607	-0.196399072734586	
0.113333333333333	0.0113754755272728	-0.00236873506573481	-0.202533803816015	0.00731411919809554	-0.00156625748532421	-0.201858938574324	-0.00149935370261496	0.0106854939825678	-0.196467187593878	-0.000524946987820651	-0.0015679092869659	-0.196452337066727	
0.12	0.0113803017349335	-0.00234245770974874	-0.202514313778493	0.00733581641157409	-0.00155029692610929	-0.201812840113475	-0.00147420576109885	0.0106681939159647	-0.196469468562815	-0.000510525885515047	-0.00159068862690924	-0.196473194023121	
0.126666666666667	0.0114110025080427	-0.00232867260661616	-0.202476794729303	0.00736901016003983	-0.00151858612860873	-0.201825330036345	-0.00147500966161942	0.0106445954145911	-0.196510515388128	-0.000489034145925827	-0.0015862102487871	-0.196521436564868	
0.133333333333333	0.0114694699088225	-0.00234333488170848	-0.20246686527505	0.0074504044824407	-0.00156110485897425	-0.201796942086121	-0.00149023519019088	0.0106870800710502	-0.196530794569558	-0.000521325116139746	-0.00157229737457957	-0.196539207943578	
0.14	0.0115031449305979	-0.00231190528552221	-0.202601345227256	0.00749118415989337	-0.00159441499643381	-0.201806387097071	-0.00150423722413718	0.0106654113916181	-0.196577106374927	-0.00053842885689966	-0.00159985312324958	-0.196534275517649	
0.146666666666667	0.0115253383189472	-0.00230688608084026	-0.202672025171614	0.00753387251041647	-0.00164577612192713	-0.201849851906356	-0.00147621820924875	0.0106138952075058	-0.196552391836508	-0.00063185635396246	-0.00164048048406588	-0.196747199966144	
0.153333333333333	0.0115378437203625	-0.00228898625696339	-0.202755240716114	0.00755442160339257	-0.00165251402960256	-0.20197341108335	-0.00142046500953958	0.0105081289371863	-0.196495091748311	-0.000583084670081839	-0.0017100199045762	-0.19684755302169	
0.16	0.0115724277510836	-0.00231059688066332	-0.202871217887936	0.00756277640381515	-0.00170433165083511	-0.202029390390468	-0.00149968262833195	0.010493243566967	-0.196555324093849	-0.000587867630098383	-0.00172358837292443	-0.196829262513999	
0.166666666666667	0.0115893310669817	-0.00232009687973173	-0.203100049145542	0.00756931878857839	-0.00176599000956958	-0.20222926795566	-0.00152368283432877	0.0104857461639815	-0.196591224657286	-0.000586493386715178	-0.00172280354497386	-0.196828527305828	
0.173333333333333	0.0115693786136428	-0.002318154070836	-0.203297556949585	0.0075602626814966	-0.00178042344742654	-0.2023808959343	-0.00152308212597146	0.010456707829203	-0.196612717343972	-0.000521539469430808	-0.00174596929583853	-0.196935051128559	
0.18	0.0115304902095224	-0.00228942913089804	-0.203720834342584	0.00749271511469311	-0.00177136706060184	-0.202521698307887	-0.00148709170650973	0.0103842116651774	-0.19663066233862	-0.000446567042404622	-0.0018505449544841	-0.197012173848957	
0.186666666666667	0.0117045594689768	-0.00231467810514928	-0.203631847266619	0.00776286479189551	-0.0018641059210099	-0.202324919352853	-0.00153690290333775	0.0103490463045926	-0.19666319606292	-0.000533748641706138	-0.00188901604988645	-0.197180343086769	
0.06	0.0106637256866629	-0.00259410639824764	-0.1962672961095	0.00676832735041117	-0.00187229569180153	-0.19654843409553	-0.000564114026451052	0.0112621308623808	-0.194453542084842	-0.0034046760822477	-0.00248579073212415	-0.196153458007153	
0.0666666666666667	0.0106866937585661	-0.00267475963784618	-0.196620344002483	0.00671104778723078	-0.00192817723964591	-0.196888294338474	-0.00058958914595197	0.0113383990082808	-0.194429938744718	-0.00346779357768172	-0.00238279778266111	-0.196363588348608	
0.0733333333333333	0.0106640274302858	-0.00283640131472281	-0.196900938682272	0.00670015824650682	-0.00199346072325016	-0.197104089756111	-0.000655887164785471	0.0112052183063079	-0.194521895715532	-0.00358300519017141	-0.00241368651172353	-0.196503527717059	
0.08	0.0106697831837178	-0.00284869509437431	-0.197064551391566	0.0066439403382542	-0.00200675606564088	-0.197362455024939	-0.000656820310564002	0.011245362952271	-0.194538657199837	-0.00358693485099082	-0.00248318129611604	-0.196564438159473	
0.0866666666666667	0.0106694667485734	-0.00275867651447134	-0.197397121776142	0.00669693189123707	-0.00200715289361279	-0.197527062543577	-0.000715753708464452	0.0112873125972147	-0.194471688375682	-0.00370813425131281	-0.00232982493615701	-0.196784732353047	
0.0933333333333333	0.0106837860742102	-0.00278181784147673	-0.197570320723492	0.00672295084518481	-0.0020186028083339	-0.197675754547269	-0.000772325882355173	0.0112470066969385	-0.194493251254081	-0.00363161666167519	-0.00222545741820182	-0.196826051423543	
0.1	0.0107385660576876	-0.0029209999325525	-0.197859289258567	0.0066759440545015	-0.00212382605915416	-0.198064260116627	-0.000752694428216341	0.0112147134607769	-0.194474338979854	-0.00373385692341204	-0.00229833340230786	-0.19708473478213	
0.106666666666667	0.0107867652671927	-0.00291158336954669	-0.198161871728031	0.00675169086550328	-0.00216147779728843	-0.198327997688834	-0.000742076127744582	0.0111550692320519	-0.194642483316881	-0.00367471154403179	-0.0023808702168122	-0.19733757149347	
0.113333333333333	0.0108207518723434	-0.00294959556251378	-0.198377485293604	0.00673620858710366	-0.00218813316054151	-0.198564746684667	-0.000758134159465399	0.011117760254912	-0.194676951680479	-0.00366562020868384	-0.00221198865281657	-0.196842859746129	
0.12	0.0108669357184775	-0.00294753666600154	-0.198603519124167	0.00678723465147631	-0.00219910762626516	-0.198730605105022	-0.000678467576722992	0.0111085028621794	-0.194637232292609	-0.0035911206441778	-0.0021201961446298	-0.197063147673689	
0.126666666666667	0.0109151843706593	-0.00295874816682077	-0.198653795022912	0.00686523590849474	-0.00221936625621638	-0.198704006843069	-0.000743894141196735	0.0110822759083729	-0.194783966317601	-0.00361629360043526	-0.00213593568354794	-0.197195117524585	
0.133333333333333	0.0109772479732708	-0.00297270702738055	-0.198780303946756	0.00692814870279679	-0.00223263865357443	-0.198793178077874	-0.000742583263860854	0.0111169797090394	-0.1948285331879	-0.00353128439383018	-0.0021553394894169	-0.197376175167375	
0.14	0.0109912325042189	-0.0029768670233691	-0.198801602265404	0.00692984128581603	-0.00224005203660026	-0.198840372954252	-0.000856893359972052	0.0110723622531043	-0.194967430810627	-0.00365271864313373	-0.00218039270021523	-0.197326778720477	
0.146666666666667	0.0110152358244885	-0.00299034627617064	-0.198847740556755	0.00694512802219939	-0.00224294018440811	-0.198912065825079	-0.000845354405918724	0.0110627866258144	-0.194938417730437	-0.00361679907480557	-0.00207302132834285	-0.197644493474557	
0.153333333333333	0.011036496883544	-0.00301381026725029	-0.199171325945431	0.00696835188484815	-0.00225419128337227	-0.19916638505705	-0.000831614346167878	0.0109895229679907	-0.194848544170524	-0.00358461787204669	-0.00210647019140749	-0.197558286124952	
0.16	0.011111237279368	-0.00306863861254358	-0.199614770653792	0.0070214069030825	-0.00228337735427668	-0.199470680641539	-0.000817467124164045	0.0110183529092819	-0.194880342645777	-0.00350340680341778	-0.00203348570250385	-0.197558552050126	
0.166666666666667	0.0111618561514876	-0.00314780123440707	-0.19973904127234	0.00718314227405217	-0.00234044203341879	-0.199583460212201	-0.000835606014235785	0.0110553128476036	-0.195023116742683	-0.00338447005858573	-0.00173400361505773	-0.197489621560498	
0.173333333333333	0.0112490740455273	-0.00321010152790394	-0.200291228736991	0.00727412229344594	-0.00230487272443006	-0.199996526383232	-0.000808300234451819	0.0110739559721938	-0.195150825597875	nan	nan	nan	
0.18	0.0112988615113059	-0.00322412811246958	-0.200634927625374	0.0074770146399043	-0.0022679518578611	-0.200289936938002	-0.000775203340335776	0.0110222369242055	-0.195156523531234	-0.000669347474632869	-0.000852785684081024	-0.19494632009338	
0.186666666666667	0.0114017611182097	-0.00331889907907342	-0.201083533169016	0.00770730080940093	-0.00223425795092838	-0.200441992402551	-0.000651002568954684	0.0109990713202149	-0.195182446534392	-0.000418653555081753	-0.000463057839291222	-0.195050369607167	
0.06	0.0110183405631567	-0.0032876535212734	-0.202673884851194	0.00678915221794589	-0.00250032297590255	-0.201701836360864	-0.00181402587909017	0.0102291454317091	-0.196260823864195	-0.0018589430280532	-0.00157093722167059	-0.196886665266588	
0.0666666666666667	0.0110179252180786	-0.00328962221178571	-0.202671209388629	0.00679169022996705	-0.00249890305743321	-0.201697186102448	-0.00180973023252641	0.0102306441116992	-0.196254057894618	-0.00185282661529105	-0.00157013274351004	-0.196882677052135	
0.0733333333333333	0.0110200158070265	-0.00328863483663109	-0.20261664362698	0.00680087944255593	-0.00249580666723247	-0.201643396588431	-0.00180999725346528	0.0102311725513036	-0.19624549832658	-0.00181861583091224	-0.00155865240448765	-0.19682973986948	
0.08	0.0110241191842498	-0.00329669801879068	-0.202611426879259	0.00679907705525773	-0.00250915571278257	-0.201652326162464	-0.00180830399822152	0.0102422072573461	-0.196244660922488	-0.00181262007609955	-0.00155861925864477	-0.196820180591999	
0.0866666666666667	0.0110164962301168	-0.00329958415169076	-0.202626174686334	0.00678845056893976	-0.00251344458818481	-0.201665671843368	-0.00181216734277288	0.010243308771014	-0.196253188800672	-0.00181633585543728	-0.00155123157201683	-0.196819909296611	
0.0933333333333333	0.0110201983301309	-0.00330251197597981	-0.202624793688985	0.00678268976043083	-0.00251588514494222	-0.201672078982542	-0.0018151741796743	0.0102538463473443	-0.196260352019661	-0.00181996829609331	-0.00154510349054829	-0.196827773039079	
0.1	0.0110296384139029	-0.00329184666766527	-0.20263201039699	0.00679680334543568	-0.00250655745060472	-0.201671305941525	-0.00181113742335646	0.0102526207285556	-0.196257216760915	-0.0018026609691586	-0.00153762914656252	-0.196808976037309	
0.106666666666667	0.0110249784210849	-0.00329524641365846	-0.202670110568162	0.0068014718757022	-0.00251544551762697	-0.201691478052633	-0.00181471435844885	0.010249335262806	-0.196261169263391	-0.00178681745107669	-0.0015428734713849	-0.196797765186098	
0.113333333333333	0.0110209333843662	-0.00329326786905998	-0.202670199085738	0.00679691697823142	-0.00251199755079665	-0.201683956923638	-0.00181730503290628	0.0102538292791775	-0.196264810354407	-0.0017829316975889	-0.00153797852612562	-0.196803240086391	
0.12	0.0110152183616173	-0.00329555424538458	-0.202667204889491	0.00679709854546699	-0.00251645667779305	-0.20167650589457	-0.001811686698729	0.010250370755884	-0.196252760259096	-0.0017824797847425	-0.0015520700409529	-0.196801026356459	
0.126666666666667	0.0110102940858399	-0.00329063104092817	-0.20268397715936	0.0067860228066896	-0.0025070253636444	-0.201695175943006	-0.00180164821731037	0.0102494291740087	-0.196246789291467	-0.00178198450624576	-0.00155061972247889	-0.196816966492935	
0.133333333333333	0.0110137652091326	-0.00329349100684567	-0.202667415976164	0.0067829325372306	-0.00251285847567877	-0.201693381317394	-0.0018205180566824	0.0102531139050195	-0.196265905559534	-0.00177410597095043	-0.00156134495690152	-0.196817096641701	
0.14	0.0110073117261855	-0.00309556031937076	-0.202542212063494	0.00677906197941271	-0.00251173191738258	-0.20170762769831	-0.00183149255350582	0.0102627017924201	-0.196273724496362	-0.00177633395996285	-0.00156065054404608	-0.196822497598513	
0.146666666666667	0.0110232947815173	-0.00328926892828302	-0.20267291466951	0.00678486465032497	-0.00250993581017793	-0.201705822386242	-0.00183983083056019	0.0102707939752043	-0.196291008550737	-0.00176531748583769	-0.0015652605615066	-0.1968183933786	
0.153333333333333	0.0110274053261928	-0.00308963649576969	-0.202552368217661	0.00678920755040697	-0.00249716966580422	-0.201722903434305	-0.00184431593529616	0.0102794963815517	-0.196310810242426	-0.00175092970944301	-0.00156115256068414	-0.196816470510503	
0.16	0.0110094778715585	-0.00308743926155374	-0.202586964380365	0.00677888122135812	-0.00250180335533041	-0.201745633043822	-0.00184988654503221	0.0102666773090842	-0.196301515463998	-0.00174920106385006	-0.0015706849065171	-0.196806944072903	
0.166666666666667	0.0109983659969637	-0.00308400472308865	-0.202595169214615	0.00677514465673701	-0.00250394849306137	-0.201741581298395	-0.00185418036783091	0.0102651555878584	-0.196308843298647	-0.00173820975599471	-0.00157762385108269	-0.196791802994908	
0.173333333333333	0.0110012706942537	-0.00308564206418033	-0.202595353369841	0.00678483637973573	-0.0025101141177813	-0.201735641301965	-0.00185909555859901	0.0102616804960943	-0.196315441238628	-0.00173173479347925	-0.00158190883113369	-0.196785993340057	
0.18	0.0110130440813684	-0.00308369576646543	-0.202565839385012	0.00680254990874845	-0.0025068178219329	-0.201707756502291	-0.00186635814872757	0.0102560924680153	-0.196324628573537	-0.00171701864908549	-0.0015820793255697	-0.196773015248334	
0.186666666666667	0.0109872962737663	-0.00306746371496817	-0.202589622452046	0.00675659139501393	-0.00250451743737683	-0.201754710086019	-0.00186141385384982	0.0102680051320306	-0.196332711639565	-0.001740554305801	-0.00157901941362701	-0.19678404962791	
0.06	0.01146950961276	-0.00250228069054547	-0.201805273527079	0.00791727707416786	-0.00175970674746964	-0.200584952350856	-0.000185911114349682	0.0104187986220363	-0.195008857236192	0.000917037898515715	-0.00181974572046701	-0.1947940033842	
0.0666666666666667	0.0114757276166133	-0.00250321078667167	-0.201792321671976	0.00792802656520022	-0.00175855383988255	-0.20058174104231	-0.000173829545861447	0.0104133500940569	-0.194995932233286	0.000921507115967775	-0.00181508389052499	-0.194783836888063	
0.0733333333333333	0.0114840653053884	-0.00250991625093648	-0.201786104735466	0.00794845878569994	-0.00176554232355742	-0.200554985123663	-0.000172264658802797	0.0104120578711033	-0.194994172276273	0.000940937650907383	-0.00181588659000205	-0.194751829888331	
0.08	0.0114876516246969	-0.002512251518942	-0.201769950894798	0.00795194569338668	-0.00176306024657071	-0.200543796459922	-0.000171394870921971	0.0104168702617682	-0.194999780891241	0.000940638132670814	-0.00179106093715788	-0.194758882875419	
0.0866666666666667	0.0114815388704801	-0.00251548414001263	-0.201781490909154	0.00794554502923427	-0.00177370323679441	-0.200550497581612	-0.000165053182125023	0.0104030028626277	-0.194994479694802	0.000942885581365141	-0.0017956176259773	-0.194731726854905	
0.0933333333333333	0.0114711164603867	-0.00252230040224699	-0.20180635276355	0.00793342533185071	-0.00178137903804622	-0.200579894209044	-0.000184289352743734	0.0103931474327364	-0.194996441207881	0.000935341051743687	-0.00180245843722335	-0.194728046876198	
0.1	0.0114791692584534	-0.0025256773708087	-0.201788057656697	0.00794078852748832	-0.0017889538951028	-0.200571550952499	-0.000187551047127036	0.0103827731354824	-0.195001403201664	0.000941305512417699	-0.00180234574441216	-0.194733396306989	
0.106666666666667	0.0114848338855803	-0.00253035420172986	-0.201781823583279	0.00793653198971177	-0.00179238781879653	-0.200596675287021	-0.000203674376888787	0.0103679786347254	-0.195015845331298	0.000938757902291041	-0.00179456571269402	-0.194723276616901	
0.113333333333333	0.0114610524873533	-0.00253016628564092	-0.201844533636591	0.00792119756946779	-0.00181809145230697	-0.20066211725546	-0.000212043500073383	0.0103647436251784	-0.195044003977081	0.000908952979634497	-0.00180484160537759	-0.194736313117889	
0.12	0.0114446552887777	-0.00252855846720349	-0.201905968585729	0.00792268574674858	-0.00183061859139051	-0.20070907135063	-0.000224647498451297	0.0103777391340336	-0.194996610975695	0.000897935212447907	-0.0017890286425381	-0.194738880995822	
0.126666666666667	0.0114307218530745	-0.00252490147259368	-0.201970022691742	0.00792281337888895	-0.00184627636958647	-0.200738139343621	-0.000179397997622774	0.0104846403640947	-0.195030353055173	0.000886607735909619	-0.0017288686271776	-0.194712841667595	
0.133333333333333	0.0114543768965134	-0.00252205071634384	-0.202006236055716	0.0079557914833843	-0.00185686796677724	-0.200773442174253	-0.000153900475289601	0.010507729994751	-0.194988468471748	0.000896308009267158	-0.00169669300817601	-0.194712087476017	
0.14	0.0114193519120707	-0.002517893423761	-0.202097828199629	0.00794107319981872	-0.00188548917403547	-0.200825377630927	-0.000176299644983721	0.0106045145340322	-0.194969599958553	0.00089966088120754	-0.00168248255007908	-0.194622882572391	
0.146666666666667	0.0114163790822267	-0.00250732040631852	-0.202164045442323	0.00796315619025957	-0.00191452074542633	-0.200906635469368	-0.000166594493442099	0.0106331466996562	-0.194935931621927	0.000968549565167893	-0.00169106026238939	-0.194581676459655	
0.153333333333333	0.011466716532774	-0.00254067601972388	-0.202320030820066	0.00803327594510647	-0.00200175377355962	-0.201048718114845	-0.000182269137466503	0.0106441093526108	-0.194905632841287	0.000981556245921194	-0.00167334799011753	-0.194708095481835	
0.16	0.0114322443012554	-0.00251929674342405	-0.202596157466062	0.0079935009393377	-0.00201456114928076	-0.201315055871385	-0.000213111664245161	0.0106360549318962	-0.195016078734347	0.000984685137715702	-0.001655864307627	-0.194818755571832	
0.166666666666667	0.0113773300644039	-0.00263736318813816	-0.202762997759	0.008063385331333	-0.00217667101650712	-0.201342648469241	-0.000227932299136004	0.0107527892361134	-0.195004234430197	0.00104162775398802	-0.0017840408471404	-0.194824017957231	
0.173333333333333	0.0117530371320858	-0.00261284885348232	-0.202545926688146	0.00843279440457283	-0.00223899059235005	-0.201112619216799	-0.00023061706773033	0.0107893381692784	-0.195016078807142	0.0010475895293856	-0.00185317974903179	-0.195092839220155	
0.18	0.0117710995738591	-0.00266005417204883	-0.202674656832361	0.00837879852282857	-0.00229523662485656	-0.201269545159192	-0.000206895684137879	0.0108370615941646	-0.194972843632243	0.00106870421916649	-0.00181806951817182	-0.195134263089196	
0.186666666666667	0.0119061123172066	-0.00263759988359955	-0.202659716815395	0.00854499860027292	-0.00226930397013844	-0.201037446205339	-0.0001964887015631	0.0108596174769234	-0.194921946593919	0.0010509820024963	-0.00180626465068985	-0.195011894905085	
0.06	0.0102003827255508	-0.00202702380454291	-0.19797626026931	0.00634724073500107	-0.00172572342073424	-0.197781519168438	-0.00219714875078085	0.0103665195923596	-0.196588987493342	-0.00193202567739689	-0.00134004927236073	-0.19533492671133	
0.0666666666666667	0.0102711819953221	-0.00203988830413125	-0.198611356619503	0.00641955709071737	-0.00176072313361991	-0.198295082197071	-0.0022000914128195	0.010384662353512	-0.196638692789901	-0.0018359595193668	-0.00136527436824813	-0.195525629145078	
0.0733333333333333	0.0103849183207885	-0.00203795690508801	-0.19894084506728	0.00654277248652929	-0.00182482460730263	-0.19870338418117	-0.00214437194047656	0.0103230684747173	-0.196672860501781	-0.00172437669960881	-0.00141346007731452	-0.195845219439933	
0.08	0.0105223469251165	-0.00193231698128989	-0.199788733840758	0.00665493712585541	-0.0018291413275376	-0.199666021276711	-0.00213642265534761	0.0102922702292499	-0.196752796299668	-0.00178016216538643	-0.00147153602657587	-0.196183388533127	
0.0866666666666667	0.0106955824711741	-0.00184406494399324	-0.20087752757961	0.0065778207972542	-0.00184839730426517	-0.200805853211917	-0.00209031610726364	0.0101856891350587	-0.196660868991715	-0.00170978786787604	-0.00172924781001074	-0.196937824025247	
0.0933333333333333	0.0108609138900261	-0.00184120392530188	-0.201235093932327	0.0066071325618142	-0.00188198026644058	-0.201516639247137	-0.00210198628559933	0.0100975917055311	-0.196766781556619	-0.00164142792296583	-0.00180366993795469	-0.197165874466202	
0.1	0.0109057906834856	-0.00183508615443428	-0.20159483945134	0.00671165781080399	-0.00189459282783824	-0.201821169130626	-0.0021720782458281	0.0100458472219404	-0.196969734929178	-0.00149017231876687	-0.00188761518164094	-0.1973628656009	
0.106666666666667	0.0109519701603742	-0.00184836201526152	-0.201619713400081	0.00670351375674224	-0.00188947596858069	-0.201853723252781	-0.00225763410734988	0.0100969651766975	-0.197047035125839	-0.0015404101699551	-0.00183069673104477	-0.197352198920803	
0.113333333333333	0.0107184921066437	-0.00190158506432271	-0.202529193386264	0.00664096335618594	-0.00193186689492425	-0.202438483835357	-0.00219626812211384	0.0100706910277153	-0.196978082123222	-0.00158632946695811	-0.00184381626086537	-0.19767384808087	
0.12	0.0106612563759771	-0.00195397157830085	-0.203102563125711	0.00684236318466028	-0.00196600377548936	-0.202643078485907	-0.00223092975550651	0.0100314018659919	-0.197049954285682	-0.00159718848169588	-0.00188464656478476	-0.197827966068026	
0.126666666666667	0.0106765349974105	-0.00193052569955266	-0.20326664426621	0.00688707297772088	-0.00196383270296402	-0.202743253802564	-0.0022536882552348	0.00993022251504956	-0.197102438931599	-0.00159523457904198	-0.00190130403805026	-0.198059855050123	
0.133333333333333	0.0106250194092669	-0.00191004110817976	-0.203698662644776	0.00686270570397343	-0.00196193559286064	-0.202943545754093	-0.00218771525240193	0.0099683731006149	-0.197032214947518	-0.00163544510531707	-0.00188680024833271	-0.198067161300649	
0.14	0.0105870193292487	-0.00190443026578562	-0.203790905169196	0.00684566555729834	-0.0019651795604116	-0.202965344596339	-0.0022130864529601	0.00995091429853035	-0.197076267369677	-0.00165815365024099	-0.00186872216416358	-0.198197724641129	
0.146666666666667	0.0104572737738631	-0.00175874773029434	-0.20390526961268	0.00669786173651672	-0.00178206157211966	-0.202957610669561	-0.0022807381267842	0.00992533282843472	-0.197135367559927	-0.00168621354098862	-0.00191044412048446	-0.198191625869825	
0.153333333333333	0.0102526249465679	-0.00169319341118793	-0.203810958132226	0.00631056332561104	-0.00164394742849948	-0.203210451475398	-0.00229983577306942	0.00986483456021807	-0.197181473779113	-0.00175128704851718	-0.00190329659795772	-0.198359164928643	
0.16	0.0102300485261751	-0.0017469946247027	-0.203897868125103	0.00624782080347946	-0.00170710631231464	-0.203419008798501	-0.0023011522392019	0.00989199677027993	-0.197163588360434	-0.00179917340270975	-0.00189323102487816	-0.198310264406856	
0.166666666666667	0.0101707638389121	-0.00183985595070476	-0.204467444119077	0.00615354580955102	-0.00185373839791518	-0.20390305311929	-0.00228568462917926	0.00991877172285793	-0.197222789812248	-0.00184620075870511	-0.00187174203488925	-0.198465676111952	
0.173333333333333	0.010301820012541	-0.00199645421753953	-0.204899089686418	0.00629261991920271	-0.00201529121224622	-0.203944494362094	-0.00227678968106848	0.00989648081930409	-0.197224651420678	-0.00173546889666672	-0.00194281852812158	-0.198381909175831	
0.18	0.0106009512702361	-0.00193766735050801	-0.204779087441828	0.00663071057617465	-0.00204732223796701	-0.203811723053549	-0.00229253309246941	0.00985239310203774	-0.197296350003447	-0.00154706944543431	-0.00202235891305959	-0.198388852246082	
0.186666666666667	0.0105606765185316	-0.00199880903956512	-0.204849480954724	0.00663506831117862	-0.00212726202902654	-0.203889310147362	-0.00230688864333873	0.00986677837158245	-0.197340115553763	-0.00157812825820109	-0.00206763832274365	-0.198429112242833	
0.06	0.0107307337434252	-0.00217512426594998	-0.19973371160562	0.00704387230768689	-0.00213521993402202	-0.199510817785122	-0.000604844733766917	0.0113944659372678	-0.1950439336119	0.000350840699409504	-0.00139369642025882	-0.19432588306692	
0.0666666666666667	0.0106886094898931	-0.00210970725743074	-0.200146871891213	0.0070531458607961	-0.00209289338122527	-0.199815903151597	-0.000583680203587986	0.011374796822621	-0.195115867957164	0.000165111231481066	-0.0016544904517798	-0.194596136784957	
0.0733333333333333	0.0107311344698	-0.0021714636859342	-0.200900023007735	0.00725680380658092	-0.00213410561675745	-0.200549919795577	-0.000485444210852653	0.0113208681427186	-0.195163923030461	0.000498789608547964	-0.00175607253933357	-0.194651684830658	
0.08	0.0108683167135956	-0.00214880776760917	-0.201158706413786	0.00752483220000966	-0.00210448906723459	-0.200582787362263	-0.000493920070075708	0.0113614884286819	-0.195271258657256	0.000911743937952835	-0.00184844932592308	-0.194423613428708	
0.0866666666666667	0.0109570503010943	-0.00214924328828038	-0.201133544633056	0.00749033037683621	-0.0021000038159736	-0.200741459834478	-0.000230687326089186	0.011247639011361	-0.195075184463586	0.000922631946569539	-0.0018547773553369	-0.194537498706245	
0.0933333333333333	0.0110555069609992	-0.00217661546242894	-0.20105052063776	0.00765332431078815	-0.00209497349594833	-0.200587545252731	-0.000210903073097943	0.011271597313248	-0.194995858331132	0.000998239567196185	-0.00186690087198644	-0.19448157521391	
0.1	0.0110271940658265	-0.00222914593678515	-0.200954702734322	0.00766228036817673	-0.002152632093859	-0.200499550406733	-0.000153861987096295	0.0112392737618746	-0.194903990711886	0.00104385871988468	-0.001883590143559	-0.194468064395549	
0.106666666666667	0.0110138306036971	-0.0022267607852379	-0.200934210066202	0.00763913801911264	-0.0021474116322373	-0.200493082303121	-0.000235024985009157	0.0112790909594839	-0.194951053466995	0.000930155806518259	-0.00184760978623543	-0.194654285033358	
0.113333333333333	0.0109436585529531	-0.00221574267918794	-0.200959013286307	0.00756257450490175	-0.00214191495029283	-0.200476879629974	-0.000264388232122952	0.0112213152013458	-0.194965785282029	0.000825353347948906	-0.00187986877214658	-0.194669554543162	
0.12	0.0108865456984541	-0.0021811382451859	-0.201170812309181	0.0075061664796538	-0.00211393203881808	-0.200672689636878	-0.000367626685269413	0.0112024013808376	-0.195098607596252	0.000663266006852588	-0.00188208207848653	-0.194807603727474	
0.126666666666667	0.0108249313015708	-0.00216852495043096	-0.201356894209798	0.0074539610413566	-0.00208339340271425	-0.200855027465455	-0.000372889861815036	0.0112026866849447	-0.195168298599298	0.000665992797495658	-0.00190355462682797	-0.194876249446947	
0.133333333333333	0.0108170276754406	-0.00214976974398146	-0.201624263227602	0.00746740058646876	-0.00207043129078259	-0.201086476130201	-0.000356195635785616	0.0112042720439722	-0.195176423682708	0.000664607798915226	-0.00192457962662691	-0.195026615587461	
0.14	0.0109393681052735	-0.00214606903147513	-0.201844735332195	0.00762564943965484	-0.00205383536125184	-0.201232202921925	-0.000293597059036004	0.0111844999409458	-0.195140591496934	0.000870725677064062	-0.0018860891886927	-0.195095558827464	
0.146666666666667	0.0111175692901512	-0.00220024186451586	-0.2018502775424	0.00786620419365987	-0.00208092001334358	-0.201147691607132	-0.00037427709356993	0.0112219467838118	-0.195260436156584	0.000999678999672587	-0.00188412286693546	-0.195174804866202	
0.153333333333333	0.0111712077201653	-0.00220854402538945	-0.201835858697603	0.00790801605647473	-0.00208137260019281	-0.201158717847296	-0.000347125690000551	0.0111819420444934	-0.195182637780224	0.00109480466637611	-0.00191609930952004	-0.19501586435163	
0.16	0.0111792437523113	-0.0022108470658246	-0.20185084621748	0.00785948282818433	-0.0020903622603439	-0.201277103957604	-0.000496331377620402	0.0112581677151578	-0.195342628944709	0.000991065624347377	-0.00191654435661236	-0.195183509450167	
0.166666666666667	0.0112130958228917	-0.00218874232357272	-0.2018340908182	0.00785568068514183	-0.00207448949262372	-0.201299587852055	-0.000460454059834377	0.0112485913587726	-0.195260757394508	0.000819955902403791	-0.00191151125106554	-0.195423807879638	
0.173333333333333	0.0112552755916299	-0.00219358495088824	-0.202177173131466	0.00794033139075678	-0.00207776655019637	-0.201491865028384	-0.000473000697482709	0.0112430971871722	-0.195281883433675	0.000831500540347586	-0.00198442653218414	-0.195347713710648	
0.18	0.0112901348709643	-0.00221342680472217	-0.202619635512986	0.00798171045850175	-0.00208587990979059	-0.201734538899341	-0.000437346885124863	0.0112345333883108	-0.195224235738093	0.000938507561255904	-0.00196633731331151	-0.195293862149959	
0.186666666666667	0.0113510017987139	-0.00215907711235455	-0.202628311921969	0.00806835027444979	-0.00209388061883481	-0.201762419755333	-0.000454919480193301	0.0112302875882684	-0.195269155765994	0.00110113183455448	-0.00199285201356955	-0.195490184093941	
0.06	0.0108979752045709	-0.00293224094871318	-0.201736824576572	0.0071988030429213	-0.00245770756035717	-0.200969872332188	-0.00108249595401006	0.0100393538319317	-0.195813801361525	-0.000401426049203674	-0.00159947484912167	-0.195780535952642	
0.0666666666666667	0.0109020096568775	-0.00293158800108463	-0.201713677247038	0.00720230266492795	-0.00246204436823193	-0.200941003379017	-0.00108795310021076	0.0100231844725701	-0.195811772002877	-0.000425852305088627	-0.00160030784660984	-0.195786425470992	
0.0733333333333333	0.0108945308333062	-0.00281885516217558	-0.201680333337119	0.00720463090469497	-0.00246328934321798	-0.200919804880142	-0.00107824570876306	0.0100177595534856	-0.195808501351477	-0.0004387477656685	-0.00160186231720021	-0.195787099168031	
0.08	0.0108822177277881	-0.0028169738566795	-0.201692577152903	0.00719244264509559	-0.0024596665417178	-0.200911558849889	-0.00105903657900205	0.00999997325167285	-0.195779736126447	-0.000475766573631687	-0.0016120055711458	-0.195829467254075	
0.0866666666666667	0.0108709255125419	-0.00278693283933275	-0.201730298278279	0.00718466641816961	-0.00243078776211956	-0.200934224686673	-0.000957406090521594	0.00999940768116669	-0.195668174029921	-0.000502406293025671	-0.00161197088054677	-0.195900784068171	
0.0933333333333333	0.0108536620465661	-0.00276093900735975	-0.201740248799595	0.00716392620474826	-0.00240829950867248	-0.20092859597218	-0.000943965081514156	0.0100063087029756	-0.195663476623647	-0.000547880592476442	-0.00160538784979212	-0.19593484074101	
0.1	0.0108622030302815	-0.00274631201937646	-0.201645939479233	0.00709011747652519	-0.00240074044013529	-0.200950247858597	-0.000881197300064132	0.00997089993491846	-0.195598934890957	-0.00058599908041143	-0.00163028750634535	-0.195946391941709	
0.106666666666667	0.01083675946205	-0.00270955254940937	-0.201651096900759	0.00704078967180844	-0.00235007626666738	-0.201021172976939	-0.000870652024902616	0.00997079911422563	-0.195606113052721	-0.000600717897226493	-0.00166247491637018	-0.19598338695156	
0.113333333333333	0.0108011440464789	-0.00270077306527033	-0.201580422382541	0.00702207991554915	-0.00230805324766479	-0.200411150860381	-0.000855950398158262	0.00999345811244484	-0.195580756214498	-0.000566343147495562	-0.00166839636225188	-0.195998349280151	
0.12	0.0108149356228427	-0.00265941017168886	-0.201621145048128	0.00702260985761907	-0.00230777143381808	-0.201019106233945	-0.000867044577605405	0.0100184972307503	-0.195596682579214	-0.000599490064667748	-0.00165498164164236	-0.196089493501106	
0.126666666666667	0.0108410678094188	-0.00260543847793	-0.201571203355066	0.00701303801947433	-0.00226768525923985	-0.201050478120724	-0.00089411519968465	0.0100278887459077	-0.195617614068732	-0.000639048145994204	-0.00164229274185912	-0.196093096861356	
0.133333333333333	0.0108209677235346	-0.00258281055994016	-0.201581605481174	0.00695369233348623	-0.0022451929856258	-0.20118046565114	-0.000927785248587646	0.0100157862918398	-0.195682252250565	-0.000724648526656342	-0.00167684288243087	-0.196195330322705	
0.14	0.010803063840142	-0.00259887240250772	-0.201635076054529	0.00697280912875728	-0.0023298062538081	-0.201237314266494	-0.00116829696030201	0.0101534208286798	-0.196013873680953	-0.000774646592077523	-0.00178158176164545	-0.196283263026374	
0.146666666666667	0.0108196698506017	-0.00260305578308306	-0.201714477511539	0.0070185967347361	-0.00235777607419364	-0.201268911660763	-0.00126052070205647	0.0101194858660491	-0.196134996854436	-0.000825174266347738	-0.00195788730207975	-0.196249530148527	
0.153333333333333	0.0110619279547089	-0.00261136226463969	-0.201484509708537	0.00729103807347064	-0.00239445291572814	-0.201009492315881	-0.00126831317162166	0.010109189207752	-0.196163531631427	-0.00075157425928667	-0.00195476899393515	-0.196257348297257	
0.16	0.0112093955414885	-0.00258694506777193	-0.201344321749393	0.00730827258963872	-0.00234371751566756	-0.201073325628898	-0.00128503217768613	0.0100703388109564	-0.19616208321395	-0.000765677749521841	-0.00196177330149128	-0.196288101780387	
0.166666666666667	0.0112985750898955	-0.002523870175934	-0.201328836109632	0.00744462352778873	-0.00239468952554047	-0.201120657446346	-0.00122413738646667	0.00992950063992123	-0.196085909113599	-0.000899998868435901	-0.00201203962248871	-0.196480651473806	
0.173333333333333	0.0111899603922118	-0.00256646642910962	-0.20163928191412	0.00757635666283526	-0.00240609627070256	-0.20109559279417	-0.00114232257424756	0.00992058773547233	-0.196045475889735	-0.0008388380927844	-0.00196770650304129	-0.196404071879648	
0.18	0.0110244955025758	-0.00255842679279935	-0.202211088029619	0.00728920950538408	-0.00231781802577023	-0.201659377509056	-0.00110388616038918	0.00988257428659054	-0.196046301917683	-0.000920129173475149	-0.00197604533233652	-0.196470287083646	
0.186666666666667	0.0109483893523275	-0.00255046065989265	-0.202382738691442	0.00704932974827576	-0.00228690481743174	-0.20199179982231	-0.000886753958019712	0.00981256731619721	-0.195749118860596	-0.000928440977465439	-0.00199182330059196	-0.196457425975316	
0.06	0.0102602554211581	-0.00246294699700917	-0.204577301168303	0.00666962132634263	-0.00252853156242925	-0.203834966314629	-0.000941131885168317	0.0094946586005311	-0.196240232138812	-0.000782093953860253	-0.00234768097155333	-0.19786326356964	
0.0666666666666667	0.0102634641273819	-0.00249343982088248	-0.204496167774146	0.00670921571404431	-0.00256102052839598	-0.203766213373116	-0.000949735268945949	0.00946375995431335	-0.196275698705769	-0.000779289199159036	-0.00232800616821994	-0.197854342333837	
0.0733333333333333	0.0102384570694474	-0.00248005112424102	-0.204426831124509	0.0066661372381268	-0.00252124875702522	-0.203645669729193	-0.000831871457347935	0.00947380536524347	-0.196092480278561	-0.000721022478181778	-0.00231781274069864	-0.197452574772554	
0.08	0.0102570798134652	-0.00244685292618442	-0.204370832616015	0.00671284377642843	-0.00249382513186728	-0.203601549618439	-0.000795379371208676	0.00951494923733956	-0.195970236595439	-0.000589695289229112	-0.0022651650816343	-0.197263617800032	
0.0866666666666667	0.0102287937053898	-0.0024109387468063	-0.204265642839221	0.00667147951266972	-0.00243821623367826	-0.203542004079906	-0.000741362349681265	0.00960216380087432	-0.195890601714154	-0.000555390480065981	-0.00222381358380217	-0.197213901205453	
0.0933333333333333	0.0102116488603744	-0.00240385289229997	-0.204001985188478	0.00664663372399694	-0.00238853388940183	-0.203567942293996	-0.000709141858162955	0.00965170009373173	-0.195793591436688	-0.000503904415779591	-0.00216536209034395	-0.197226686535438	
0.1	0.0101531639660957	-0.00240806537785011	-0.203942728146644	0.00659741243045724	-0.00239147720604181	-0.203559101034674	-0.00075090376890081	0.00970610685377271	-0.195821346416128	-0.000557545976503532	-0.0022110964468697	-0.197177458589259	
0.106666666666667	0.0101197842544819	-0.00238863069288709	-0.203916720021582	0.00657475705388306	-0.00238569446333607	-0.203510579304514	-0.000764671101940773	0.00967761003740647	-0.195863754900719	-0.000569127884431437	-0.00220794723478717	-0.197053474510001	
0.113333333333333	0.0100793508151828	-0.00239170805499179	-0.203774123939096	0.00650085977425492	-0.00238326712460859	-0.203466077481394	-0.000883914415184238	0.00969570186947349	-0.196027408462661	-0.000720974242630393	-0.00217011057899985	-0.197242060592442	
0.12	0.0100826705204723	-0.0023735729736504	-0.203722834946955	0.00649422017841176	-0.00236906211642707	-0.203447449420705	-0.000994403316631376	0.0095561166095981	-0.196088990405797	-0.000901233435011028	-0.00214035050216077	-0.197408584048034	
0.126666666666667	0.0100587744615393	-0.0023864365781711	-0.203709224705628	0.00641724316537006	-0.00240374342572891	-0.203520956751045	-0.00119498518410194	0.00957090464396413	-0.19634318774609	-0.00115033642072492	-0.00216295155044819	-0.197645078743298	
0.133333333333333	0.0100824230972623	-0.002397169700867	-0.203711307016147	0.00640796548210426	-0.0024052235445268	-0.203510419910674	-0.00123465335608992	0.00942671442331985	-0.196418792898138	-0.00118471853952898	-0.0021527605047565	-0.197759877096453	
0.14	0.0100756212152688	-0.00240248021699907	-0.203746706290544	0.00638626042466307	-0.00241345874936496	-0.203539477216496	-0.00125098604916833	0.00939812155602762	-0.196505991942117	-0.00120856745951314	-0.00221408159935962	-0.197819462516525	
0.146666666666667	0.010100197246053	-0.00240684973166746	-0.203860756664596	0.00643406005694279	-0.00239822639866078	-0.20361119392041	-0.00116528857911819	0.00938723957091555	-0.196585701168853	-0.00110458797247805	-0.00228809526236631	-0.197875804814054	
0.153333333333333	0.0101703985292005	-0.00243408418438231	-0.204022229995551	0.0065620038199214	-0.00243003000172216	-0.203621520183097	-0.000935828066902297	0.00950827833776431	-0.196461436843862	-0.000860759824020718	-0.00232413919318798	-0.197711212314439	
0.16	0.0102509767578671	-0.00240111764159105	-0.204423053873702	0.00665689649031332	-0.00243676963251107	-0.203698742934662	-0.000916656238135476	0.00961596386539668	-0.196525817360526	-0.000641522179440167	-0.00233724531747437	-0.197691337236208	
0.166666666666667	0.0103089998828788	-0.00240332469588423	-0.204505610380722	0.00665928735405635	-0.00243913267956959	-0.203843748193831	-0.000778801569319977	0.00965325914718276	-0.196415737148589	-0.000560713806980771	-0.0024140378767329	-0.197763468492532	
0.173333333333333	0.010370232414102	-0.00237112802972861	-0.204599242621219	0.00673515742492142	-0.00239104926178652	-0.203875709362806	-0.000636877989310099	0.00968245665569786	-0.196218220839238	-0.000407544834127354	-0.00238390479432198	-0.197657182525424	
0.18	0.0103573641620879	-0.00234095506482654	-0.204831456896086	0.00673022782149509	-0.00239220873876886	-0.204025750145264	-0.000589422542802147	0.00968771434311686	-0.196190044553725	-0.000453385589238655	-0.00241347479268657	-0.197787840576162	
0.186666666666667	0.0103837582705607	-0.00230757860289328	-0.205128427891906	0.00680811599373779	-0.00236726789114928	-0.20424465393056	-0.000554990554329086	0.0097046887705007	-0.196125294637684	-0.000336367111903992	-0.0024246603860144	-0.19784156151458	
0.06	0.0116930725465434	-0.00295657413630064	-0.201182622967878	0.00846554489528107	-0.00237400687738142	-0.199909441916624	0.000752328955021228	0.011359317665347	-0.19407109315067	-0.00173305329802182	-0.00316249030882613	-0.197177194394464	
0.0666666666666667	0.0116911430939479	-0.00296104290158715	-0.201192967458064	0.00847305072605544	-0.00237320704701876	-0.199887781470446	0.000743344417551277	0.0113539365419707	-0.194049252624736	-0.00169530259071112	-0.00311289585239772	-0.197181767891012	
0.0733333333333333	0.0116551343190994	-0.00295302135783641	-0.201219858216874	0.00845550127624143	-0.00236499077891527	-0.199895326767886	0.000706333318461459	0.0114440492365383	-0.194067786291949	-0.0017364303447135	-0.00312040847175078	-0.197202287845805	
0.08	0.0116472756114856	-0.00295611359883459	-0.201215865590416	0.00844756288604741	-0.00236771503464501	-0.19991197295304	0.000682941828864884	0.0114824351487903	-0.194092374499256	-0.00177242666751791	-0.00310150735130276	-0.1972364231341	
0.0866666666666667	0.0116497588823802	-0.00295190184098476	-0.201241676280451	0.00847378540207664	-0.00236875010727739	-0.199933598338958	0.000655327654560096	0.0114967603300378	-0.194105622984635	-0.00175353637718971	-0.00310193029632194	-0.197232687322725	
0.0933333333333333	0.0116554211211991	-0.0029530679125856	-0.201222592010222	0.00828976165373005	-0.00233427997629768	-0.200179121697436	0.000672601498676699	0.0114598591394448	-0.194067747298283	-0.00167606610632435	-0.00308215802668953	-0.197178018957218	
0.1	0.0116428620841289	-0.0029423848015373	-0.201238400777955	0.0083147887986631	-0.0023173946972972	-0.200127393373894	0.000665046375809536	0.0114943069719274	-0.194098133169422	-0.0016067357409747	-0.00317896974940696	-0.196727104722002	
0.106666666666667	0.0116428759435851	-0.00294203206483549	-0.201259485976082	0.0083467629471117	-0.00231123262262218	-0.200128403738497	0.00067437321656293	0.0114920723533329	-0.194086955273094	-0.00154967412014575	-0.00316684447882063	-0.196602624764579	
0.113333333333333	0.0116296198297203	-0.00294193973304331	-0.201321531724734	0.00833042289263724	-0.00229417358036542	-0.200198638816053	0.000641543531638024	0.0114763944044525	-0.194108006989836	-0.00164076927406195	-0.00308387654225689	-0.196694661464661	
0.12	0.0116498395003268	-0.00294929141915841	-0.20134143812374	0.00836380109969711	-0.00228196148580516	-0.200222320160857	0.000609680610371095	0.011468278006679	-0.194188452429073	-0.00164474740460658	-0.00309681940996643	-0.196738927228743	
0.126666666666667	0.0116513440403731	-0.00293294030853834	-0.201299127409175	0.00836582030858828	-0.00228498923845136	-0.200155301892996	0.000678860779165863	0.0114786410016605	-0.194059198400918	-0.00153899577279263	-0.00305314539654863	-0.196549849686742	
0.133333333333333	0.0116564393901026	-0.00292610953817116	-0.201341530257298	0.00836820220278319	-0.00226542975917819	-0.20017785040202	0.000768157435865122	0.0114887746563479	-0.19403186781911	-0.00153716815617892	-0.00305607107916826	-0.196594807569011	
0.14	0.0116609714385746	-0.00293591684282812	-0.201334547380908	0.00836974453498821	-0.00227674280815732	-0.200179383935061	0.000743020883318252	0.0115165918857	-0.194013394232017	-0.00152141159860811	-0.00304963999279636	-0.19664936918113	
0.146666666666667	0.0116819854295988	-0.00293877625284631	-0.201290551112249	0.00837308748361835	-0.00227835429432996	-0.200200439331159	0.000732477745072312	0.0115454382596311	-0.19406807113783	-0.00155531782163428	-0.00305073549750258	-0.196769132396581	
0.153333333333333	0.0116744279023148	-0.00291767138223887	-0.201296629209917	0.00836371580445289	-0.00226312029673679	-0.200208205612556	0.000614228888826128	0.0115863965451434	-0.194171203205781	-0.00162024552805571	-0.00304484282267669	-0.1968159488955	
0.16	0.0116568256330559	-0.00290484952617446	-0.201354919865561	0.00834651318854024	-0.00224456449009106	-0.200290692471181	0.000609299432640908	0.0116057573192511	-0.194156845392996	-0.00165981371238731	-0.00310140851668393	-0.196922420929613	
0.166666666666667	0.0116561226102309	-0.00291433775212544	-0.201429938668778	0.00834798714533669	-0.00224012510908382	-0.200367590314429	0.000522865754998484	0.0116415515264548	-0.194240538576124	-0.00155996735253091	-0.00307879271734708	-0.196918361604079	
0.173333333333333	0.0116458645801318	-0.00292713989371178	-0.201526452794875	0.00833333279220959	-0.0022331584876962	-0.200448047494545	0.000523169829823005	0.0116210676812975	-0.194147133030109	-0.00167348264912001	-0.00311294318686499	-0.197108879682322	
0.18	0.0116749163281174	-0.00290362910256813	-0.201526309352783	0.00834708268248723	-0.00222967172831498	-0.200494752572496	0.000424698910519915	0.0116361723254464	-0.194222436111532	-0.0016671385629425	-0.00312512153535991	-0.197017841376761	
0.186666666666667	0.0116859532631301	-0.00291827055341358	-0.20158215914975	0.0083635834594612	-0.00224536429318217	-0.200560830803314	0.000404733884846064	0.011652484671543	-0.194271369437999	-0.00168206914603385	-0.00312159620087845	-0.197106067760088	
0.06	0.0109642045816503	-0.00263934211920627	-0.200209562761885	0.00677255079375874	-0.00194064936987082	-0.200174110554789	-0.00196520711858451	0.0102619389510623	-0.196329620386002	-0.00133733208990646	-0.00143061141971984	-0.196201384390369	
0.0666666666666667	0.0109701916142048	-0.00262634305917482	-0.200256188530954	0.00677192692643091	-0.00191303274402025	-0.200221926188329	-0.00194430233204744	0.0102958344634644	-0.19641873360709	-0.00128964409293722	-0.00138503395009378	-0.19612461169665	
0.0733333333333333	0.0109753576928105	-0.00261557455286553	-0.200298971190712	0.00676369047394234	-0.00187264507024742	-0.200237616193268	-0.00200365205701835	0.0103448276862556	-0.196490806181373	-0.00128331490449645	-0.00136975590066994	-0.196120234063519	
0.08	0.0109655125086949	-0.00261165464951618	-0.2002988277093	0.0067585707271445	-0.00185317818907451	-0.200239348262915	-0.00201426692528826	0.010366526484061	-0.196581789900557	-0.00128744090658782	-0.00134683766231035	-0.196211276517434	
0.0866666666666667	0.0109780172383146	-0.00261526743240347	-0.200301239513802	0.00680512357171308	-0.0018517184055432	-0.200168877940814	-0.00193928121988062	0.0103869319919109	-0.196550712938652	-0.0012643627941565	-0.0013664825846474	-0.196230856965237	
0.0933333333333333	0.0110017232820206	-0.00264325844619794	-0.20035518989108	0.00683212903793205	-0.00188635172396526	-0.200252276386519	-0.00190268459490603	0.0104049422561053	-0.19656405526367	-0.00122573418287047	-0.00136272039338803	-0.196219162693804	
0.1	0.0110724296275018	-0.00263148727388401	-0.200450894340711	0.00688164186982872	-0.00187984079019334	-0.200279609104981	-0.00188585876630285	0.0104703373312063	-0.196497086843154	-0.00121907585047503	-0.00131614567922113	-0.196153274599533	
0.106666666666667	0.0111211098063915	-0.00264553004446751	-0.20034193317129	0.00695924226726558	-0.00193756593214619	-0.200185693618105	-0.00184049222047264	0.0104339595044905	-0.196371043122238	-0.00115246476518926	-0.0013292527907915	-0.196069856973267	
0.113333333333333	0.0112144229824599	-0.00261016001916301	-0.200301298711892	0.00702808823580179	-0.0018965268388518	-0.200213016024024	-0.0017693598666535	0.0104388598501765	-0.196337923482947	-0.00118748621822265	-0.00139810494364991	-0.196175004352593	
0.12	0.0113369115372687	-0.00255742400635873	-0.20021652557848	0.00706033264247936	-0.00188775651030492	-0.200223382355633	-0.00190974698009079	0.0105555747118651	-0.196540212461793	-0.00123661131401688	-0.00133654720051703	-0.196252481986494	
0.126666666666667	0.011454655438086	-0.00251840632196183	-0.200167785372849	0.00718645490940101	-0.00181530427474836	-0.200210376584129	-0.00187693955515463	0.0106110655710664	-0.196477492468871	-0.00102194862194732	-0.00128365356975237	-0.195958825475933	
0.133333333333333	0.0115130799257797	-0.00252482504329409	-0.20020168479382	0.00724179417144581	-0.00178830984536977	-0.200206186452634	-0.001901868124181	0.0106728159231672	-0.196488721099783	-0.00105044625394536	-0.00126716437617245	-0.19602768558644	
0.14	0.0115831901313768	-0.00250143814671805	-0.200378346214906	0.00735569250794494	-0.00171310182694223	-0.200483188485724	-0.00187918236355041	0.010691808666297	-0.196537423569811	-0.00103638850476575	-0.00132674127502981	-0.196265197844175	
0.146666666666667	0.0116353936125241	-0.00242744853470503	-0.200509150674141	0.00749296148986999	-0.00174722301774898	-0.200470406234344	-0.0019643776088869	0.0106954593850153	-0.196563617181698	-0.000938525803059617	-0.00137036231058736	-0.196254872506047	
0.153333333333333	0.0116335428954616	-0.00245196946176366	-0.200472687563762	0.00750554416768324	-0.00179346234289655	-0.200398807803207	-0.00185946861384531	0.0107053499396885	-0.196442292104688	-0.000965686592726372	-0.00142639005094279	-0.196297450536914	
0.16	0.0116355142828374	-0.0024857461441044	-0.200499201506001	0.00746726071158599	-0.00183142478034607	-0.200490096497374	-0.00190027510790469	0.0107602842940338	-0.196467558485959	-0.00100663763902354	-0.0013870995237636	-0.196422411877474	
0.166666666666667	0.0116512824314368	-0.00244167546941912	-0.20077844558406	0.00748948078232812	-0.00179974833088897	-0.200791962765821	-0.00187656196081174	0.0107839997058856	-0.196466630179198	-0.0010276707158044	-0.0013909499984967	-0.196625746527825	
0.173333333333333	0.011626155539192	-0.00237150696683086	-0.200982500308092	0.00738982148730347	-0.00173321371786679	-0.200911094907723	-0.00193297406418833	0.0107937190380144	-0.196499987866927	-0.00110188895523176	-0.00130616034299353	-0.196607910144424	
0.18	0.0116891092595105	-0.00226524164438073	-0.201354511963807	0.00744375929358657	-0.00158872924046876	-0.201243121990896	-0.00198133480464993	0.0107882498896723	-0.196554828746853	-0.00108936598507609	-0.00133979938904283	-0.196996177635289	
0.186666666666667	0.0117504139060984	-0.00217083829426789	-0.201814862963196	0.00758170743321591	-0.00156629239253628	-0.201525026515872	-0.0021065577210632	0.0108075380620492	-0.196736882043642	-0.00110819485226585	-0.00141472249585189	-0.197362580214333	
