PathFileType	4	(X/Y/Z)	mouse_tracked.trc
DataRate	CameraRate	NumFrames	NumMarkers	Units	OrigDataRate	OrigDataStartFrame	OrigNumFrames
	15.00	15	20	4	m	15.00	1	102
Frame#	Time	handm	wristm	shoulderm	elbow	
X1	Y1	Z1	X2	Y2	Z2	X3	Y3	Z3	X4	Y4	Z4	

0.06	0.0105050844288441	-0.00252588033852074	-0.196543738487892	0.00645868445457163	-0.00171696069259745	-0.196248752028155	-0.00124912163850166	0.0108631439314925	-0.19511539927975	-0.00252640702360729	-0.0036053946754724	-0.195784146765414	
0.0666666666666667	0.0105055456600846	-0.00252851315641929	-0.196550059710299	0.00649172545832884	-0.00171490257543915	-0.196220593269819	-0.00119752382807146	0.0108696491163201	-0.195010521327296	-0.00248089571019724	-0.00359656238828956	-0.195740265313857	
0.0733333333333333	0.0105041250554014	-0.00252542166909477	-0.196531039021077	0.00649504523600527	-0.00170168217605766	-0.196227885856768	-0.00123167700756555	0.0108374763095791	-0.195054200552767	-0.00245921837825226	-0.00359541376340728	-0.195709141484684	
0.08	0.0105011451921336	-0.00252455732030204	-0.19652941802373	0.00648553070719475	-0.00169083973520755	-0.19621185158387	-0.00123701157424178	0.010805902043033	-0.195047324389335	-0.00248328524046361	-0.00359054127625116	-0.195720330786441	
0.0866666666666667	0.0104926010299985	-0.00253395511638153	-0.196533525610116	0.00647799065069028	-0.00170361353091425	-0.196215279506117	-0.0012485867986762	0.0108158172731308	-0.195093361779405	-0.00251695395892495	-0.00362801336924843	-0.195780799680025	
0.0933333333333333	0.0104871969453476	-0.00253771904326229	-0.196525359361977	0.00644670999706941	-0.00170364103594621	-0.196240568041934	-0.00123466260902607	0.0107767702271535	-0.19505978034943	-0.00252585955756801	-0.00364082133384105	-0.195796495898287	
0.1	0.0104773467299493	-0.00254016845436982	-0.19651701204753	0.00642737209150181	-0.00171158952054613	-0.196256378062096	-0.00121930087657924	0.0107580769978848	-0.195069827366557	-0.00253217280026054	-0.00363958106689047	-0.195794659763292	
0.106666666666667	0.010487632448319	-0.00254816088336653	-0.196530585928858	0.00643158343541709	-0.00173052005518053	-0.196273199869351	-0.00121058338402126	0.0107356427502703	-0.195042381011879	-0.00256146451607732	-0.00363808409856644	-0.195858691384473	
0.113333333333333	0.010492771693798	-0.00254755435015623	-0.196545456564805	0.00643230643684589	-0.00174704478371346	-0.196305648053483	-0.0011902775133559	0.0107294671811143	-0.19500678684405	-0.00258248270465631	-0.0036313534901799	-0.195885151577803	
0.12	0.0104555904947912	-0.00253286744098246	-0.19665765123715	0.00637354253231107	-0.00173102326438536	-0.196435374820186	-0.00123682123153238	0.0106984017440762	-0.195058694690807	-0.00269674044285251	-0.0036829457624858	-0.196101401085117	
0.126666666666667	0.0104565973837518	-0.0025439294337697	-0.196719205806267	0.00636409085614423	-0.00172982335053605	-0.196506151122149	-0.00130992855929776	0.0106473900877556	-0.195201352453223	-0.00278072584881175	-0.00370204388460459	-0.196220106298644	
0.133333333333333	0.0104492422470858	-0.00252457361010612	-0.196736772981838	0.00636867860510368	-0.00173133279725896	-0.196566847128246	-0.0013248586948465	0.01061844765096	-0.195250027962349	-0.0028411903417833	-0.00375194981380015	-0.196191578033216	
0.14	0.0104868002412835	-0.00250862016951801	-0.196705731924593	0.00641522523370343	-0.00172480179373085	-0.196540052956574	-0.00138803340246887	0.0105539067172177	-0.195368345340574	-0.00299366022740986	-0.00385700873817506	-0.196340040190679	
0.146666666666667	0.0105090026097573	-0.00251545388107909	-0.196715075263846	0.00646607362745159	-0.00178901591664289	-0.196551578219833	-0.00141828913873662	0.0105468833565591	-0.195454061651056	-0.00299225297372001	-0.00389768793439315	-0.196444933605426	
0.153333333333333	0.0105509726016446	-0.00251103999024882	-0.196675276325159	0.00656141399714262	-0.00182550018451419	-0.196537672027512	-0.00144451319448347	0.0105051840706272	-0.195543829532032	-0.00301339107944376	-0.00405504111354238	-0.196389013710471	
0.16	0.010541620140304	-0.00247522044286952	-0.19656980489476	0.0065653240090354	-0.00186052183693717	-0.196486680943322	-0.00147742959755684	0.010493394352174	-0.19554442585995	-0.0030524555268145	-0.00397545994090028	-0.196580375346741	
0.166666666666667	0.0105430432381966	-0.00245680578763132	-0.196646705547371	0.00654033737640263	-0.00185520074134406	-0.196618436212088	-0.00152415035578446	0.0104356220493799	-0.19564009772329	-0.00309193029680591	-0.00401640157981765	-0.196956696840271	
0.173333333333333	0.0105557051198674	-0.00242730674118096	-0.196923489501802	0.00654522944430194	-0.00186451255988589	-0.196954281307329	-0.00144352358373868	0.0103452097336563	-0.19546271724463	-0.00302910850187167	-0.00397078647607144	-0.197165029556891	
0.18	0.0106612698551323	-0.00238317055320563	-0.19704879433673	0.00672204684420485	-0.00183439350619294	-0.196971683279914	-0.00152954160242397	0.0100000997960783	-0.195718396469223	-0.00275001926846716	-0.00396941124617545	-0.197254397891598	
0.186666666666667	0.0106326074890164	-0.00238499337474838	-0.197233923291602	0.00674833098071303	-0.00184132076441969	-0.197169632351899	-0.00147856664349954	0.00993995224798954	-0.195646830168635	-0.00258254427096045	-0.00384773634339392	-0.197135679809654	
