inDegrees=no
num_controls=6
num_derivatives=0
num_input_controls=0
num_iterations=76
num_multipliers=0
num_parameters=0
num_slacks=0
num_states=12
objective=0.000529
objective_goal=0.000529
objective_myeffort=0.000000
solver_duration=7.892505
status=Solve_Succeeded
success=true
DataType=double
version=3
OpenSimVersion=4.5.2-2025-05-03-6a4c6ec41
endheader
time	/jointset/shoulder/elv_angle/value	/jointset/shoulder/extension_angle/value	/jointset/shoulder/rotation_angle/value	/jointset/humerus_ulna/elbow_flex/value	/jointset/ulna_radius_pj/radius_rot/value	/jointset/wrist/wrist_angle/value	/jointset/shoulder/elv_angle/speed	/jointset/shoulder/extension_angle/speed	/jointset/shoulder/rotation_angle/speed	/jointset/humerus_ulna/elbow_flex/speed	/jointset/ulna_radius_pj/radius_rot/speed	/jointset/wrist/wrist_angle/speed	/tau_elv_angle	/tau_extension_angle	/tau_rotation_angle	/tau_elbow_flex	/tau_wrist_angle	/tau_radius_rot
0	1.762632444826595	-0.3690430874108393	-0.2363024198810982	-0.134672282675167	-0.1627849965250421	-0.2268230020999908	0.1920709101884631	-0.4492791682365329	-0.5109077900064074	1.247537376271609	-0.0008334805257552894	1.895504135529106e-07	0.0002971945033982199	0.0002583124660340587	0.0002354439011668052	-7.291472547624662e-05	3.68935335891944e-05	-8.035515001997764e-05
0.00326666666666666	1.763010601762796	-0.3676161490073093	-0.2356437380978048	-0.1284651024665029	-0.1627852113931995	-0.2268230020999908	0.09579437315885578	1.08607202840554	0.7832845981449502	2.288022396943609	0.0004457081693794477	-9.477521002581052e-08	0.0002301077475494294	0.0001139878531659432	0.0002105248820046571	-6.843479698242644e-05	3.393763304215077e-05	-5.509569674030994e-05
0.00653333333333332	1.7636263935043	-0.3634947904196055	-0.2320401591598865	-0.1214535999981191	-0.1627837585384344	-0.2268230020999908	0.3375616073128709	1.200365842482157	1.292090467927107	1.739979576100012	0.000187574324755865	1.89550415006866e-07	0.000163020991700639	-3.033675970217228e-05	0.0001856058628425089	-6.395486848860626e-05	3.09817324951071e-05	-2.983624346064223e-05
0.009799999999999979	1.765196303095029	-0.3606225897510618	-0.2280797170964458	-0.1175260259109352	-0.162785015113235	-0.2268230020999908	0.5618927226344923	0.5348863931007992	0.9935765065460723	0.797486070048252	-0.000743013710898054	-9.477520750359834e-08	-0.0001457295133190858	-5.642702944804123e-05	-0.0001329894217128428	9.87586191045131e-06	-1.419976153895843e-05	3.702756819374331e-05
0.01306666666666664	1.766894222551581	-0.3601520207197134	-0.2264575366709914	-0.1153755451343717	-0.1627872154661324	-0.2268230020999908	0.4159349945507429	-0.270020874168065	-0.1394982900239386	0.6519632634750153	-0.0003902489997781916	1.895504150051732e-07	-0.0004544800183388104	-8.251729919391038e-05	-0.0004515847062681945	8.370659230950887e-05	-5.938125557302396e-05	0.0001038913798481289
0.0163333333333333	1.767738265265382	-0.3617620083948254	-0.2288667963331709	-0.1136943318053645	-0.1627845905675127	-0.2268230020999908	0.1072633771188004	-0.5033500080129684	-1.158238958545508	0.1110946009290607	0.001378829211545954	-9.477520750123481e-08	-0.0002875161779583225	0.0003676585222999694	-0.0002933524950012811	-0.000225804244063671	9.47588026116772e-05	7.738186128969389e-05
0.01959999999999996	1.767637068455127	-0.3620533131685323	-0.2328662092420905	-0.1163892690102238	-0.1627822479857124	-0.2268230020999908	-0.1627830814019317	0.5373360042433549	-1.11306150231372	-2.027312573586042	-0.0005630960321183071	1.895504150052174e-07	-0.0001205523375778345	0.0008178343437938492	-0.0001351202837343677	-0.0005353150804368515	0.0002488988607963782	5.08723427312589e-05
0.02286666666666662	1.766562260784344	-0.3582687810059193	-0.2360710773278078	-0.12596900225699	-0.1627871516344469	-0.2268230020999908	-0.5328726329951298	1.568906504762229	-1.00352868259766	-3.267754486654361	-0.001731784807992613	-9.477520749912765e-08	-0.0002821131441550129	0.0001214238586113735	-0.0002533363280741542	-3.621386615366338e-05	3.978913940635003e-06	6.790513490058687e-05
0.02613333333333328	1.763909913935295	-0.3531804682623669	-0.2404315135002681	-0.1340141034628713	-0.1627889409396755	-0.2268230020999908	-1.128623394627064	1.335569012982067	-1.820552167662909	-1.087741936309606	0.001343644889812235	1.895504150052056e-07	-0.0004436739507321914	-0.0005749866265711022	-0.0003715523724139407	0.0004628873481295247	-0.0002409410329151082	8.493792706991488e-05
0.02939999999999994	1.759248148097097	-0.3499314079501233	-0.2481624647470201	-0.1338696863403975	-0.1627807716827586	-0.2268230020999908	-1.664644745114309	0.7360866714005383	-2.826448480022311	0.3495782494541027	0.002413351692004071	-9.477520750107548e-08	-0.000371663267709658	0.0001216671925561359	-0.0002795266503792424	-0.0001087687558697145	3.772323487712246e-05	0.0001007394606368761
0.0326666666666666	1.753431946440362	-0.3478327927868916	-0.2583342428142827	-0.1371305301437886	-0.1627813050252874	-0.2268230020999908	-1.835420834547842	0.6312148401176328	-3.314935935322453	-3.172595564390002	-0.003984477219782622	1.895504150061579e-07	-0.0002996525846871248	0.0008183210116833727	-0.000187500928344544	-0.0006804248598689538	0.0003163875026693531	0.0001165409942038372
0.03593333333333326	1.746950729239785	-0.3451146516419236	-0.2696879812627547	-0.1546345105749978	-0.1627895114843722	-0.2268230020999908	-2.306438673765827	1.175688416336157	-3.667416772166193	-6.706744606332303	-0.0006747786229672222	-9.477520750310425e-08	-0.0006104493796421531	0.0004857601679732622	-0.0004835761292352317	-0.0002926405382394173	0.000119477326139176	0.0001698140803056289
0.03919999999999992	1.737227933786418	-0.3392190917712026	-0.2824977829541396	-0.175477028962375	-0.1627833282141242	-0.2268230020999908	-3.820060581153979	2.57657324363983	-4.206403226901832	-5.216598394696921	0.004825561147278462	1.895504150061731e-07	-0.0009212461745971815	0.0001531993242631516	-0.0007796513301259194	9.514378339011919e-05	-7.74328503910012e-05	0.0002230871664074206
0.04246666666666658	1.721920238871488	-0.328508229207276	-0.2974253933917285	-0.1879806063222933	-0.1627805117626286	-0.2268230020999908	-5.370218954086787	3.75710886363577	-4.994653308891021	-3.076861394387736	-0.002012930058563605	-9.477520750297396e-08	-0.0006473517632075902	0.0002607192489471018	-0.0005740086492828848	-0.0001130751164909832	2.936422121219762e-05	0.0001765324080521001
0.04573333333333324	1.70333012331586	-0.3161360410169549	-0.3155326455223849	-0.199748817921388	-0.1627893693067097	-0.2268230020999908	-5.829705871377809	3.593711382248702	-6.153122630820661	-4.766374459498836	-0.002321783083394104	1.895504150061761e-07	-0.0003734573518179993	0.0003682391736310521	-0.0003683659684398507	-0.0003212940163720856	0.0001361612928153965	0.0001299776496967793
0.0489999999999999	1.683964473667671	-0.3054367791146163	-0.3377224547689366	-0.2205681840352733	-0.1627866392510515	-0.2268230020999908	-6.210957258460701	3.078080215935746	-7.376382991248617	-7.738207062240842	0.002670623826893813	-9.477520750233131e-08	-0.0007680012837508657	0.0003373654016214687	-0.0005379734538448877	-0.0003019268889987976	0.0001195851711482027	0.0002385472598777791
0.05226666666666656	1.661548802038397	-0.2952339261073909	-0.3633585474765214	-0.2487242388811858	-0.1627805623608159	-0.2268230020999908	-7.697066267959895	3.289787568914128	-8.26309209675934	-9.258224703597129	-0.0002727006890577641	1.895504150061441e-07	-0.001162545215683732	0.0003064916296118853	-0.0007075809392499253	-0.0002825597616255096	0.000103009049481009	0.0003471168700587786
0.05553333333333321	1.633919957757229	-0.2825387386225567	-0.3912455532094293	-0.2781137215996713	-0.1627891954254452	-0.2268230020999908	-8.899940314266884	4.678839267638521	-8.80283815767767	-8.242247740298938	-0.003158864479171374	-9.477520750440618e-08	8.240340685442221e-05	0.0005091029723884002	-0.0004134059349584264	-4.552164642575188e-06	-1.848035549954137e-05	-1.579651874853934e-05
0.05879999999999988	1.605484126105979	-0.2633845641660123	-0.4208198115040388	-0.2993520798773178	-0.1627890875759952	-0.2268230020999908	-8.19114016801014	7.244269388328494	-9.29610386922969	-4.267740352063042	0.005078879359462638	1.895504150060968e-07	0.001327352029392577	0.0007117143151649148	-0.0001192309306669274	0.0002734554323403592	-0.0001399697604800917	-0.0003787099075558576
0.06206666666666654	1.581196657877307	-0.2363496009894543	-0.4518355078772121	-0.3073227674894372	-0.1627804256390808	-0.2268230020999908	-6.771461051647302	8.917774534462271	-9.570323347664738	-1.305698733638084	0.0001947837503979737	-9.477520750114058e-08	0.0007987995207167941	0.0002289268327081464	0.000251867134047085	8.526634502971718e-05	-4.098400208426313e-05	-0.0002099479976962851
0.0653333333333332	1.560638125514809	-0.2076696029515249	-0.4825437963664652	-0.3124130298485226	-0.1627880081374992	-0.2268230020999908	-5.90811820912836	8.251433589168062	-9.107894960707167	-2.504214686940159	-0.004866693293271287	1.895504150061283e-07	0.0002702470120410111	-0.0002538606497486216	0.0006229651987610973	-0.0001029227422809248	5.800175631156544e-05	-4.118608783671276e-05
0.06859999999999987	1.542037800398593	-0.1830222392818176	-0.5106778645214711	-0.3236479535363181	-0.1627894433716191	-0.2268230020999908	-5.604514799282038	6.987207855472068	-8.061741690934104	-3.728204845666893	0.002544607241575062	-9.477520750274922e-08	0.0002669056046618345	-0.0004643127147489	0.0005521078254594422	0.0001714533884853365	-7.522658941102375e-05	-5.941645880840001e-05
0.07186666666666652	1.523207393636081	-0.161050175536288	-0.5348525289179338	-0.3325494143687304	-0.1627808133959122	-0.2268230020999908	-6.048984523186992	6.613494860079684	-6.683770210578662	-1.075563959154571	0.001295680070109815	1.895504150060203e-07	0.0002635641972826582	-0.0006747647797491785	0.0004812504521577871	0.0004458295192515977	-0.000208454935133613	-7.764682978008748e-05
0.07513333333333318	1.502046644136309	-0.1391486147039714	-0.5536671185213166	-0.3293520528153497	-0.1627817139716436	-0.2268230020999908	-6.868231113014716	6.843626550210089	-4.700824611581866	2.743420121731171	-0.00154379394077305	-9.477520750286192e-08	0.0004050013370144604	-0.0004357475977963199	0.0007539527084872265	0.0002514047905451923	-0.0001064804021506466	-0.0001366100274485581
0.07839999999999983	1.478585472873626	-0.1160248655236225	-0.5646855774715195	-0.3165185221914426	-0.1627889182240215	-0.2268230020999908	-7.457406010682985	7.361773440507624	-1.910628994346074	4.824131390147363	-0.002563713795134765	1.895504150060375e-07	0.0005464384767462628	-0.0001967304158434619	0.001026654964816666	5.698006183878684e-05	-4.505869167680307e-06	-0.0001955732251170287
0.0816666666666665	1.454295639589044	-0.09202778968205673	-0.5674882036339399	-0.2992829516302265	-0.1627859051991098	-0.2268230020999908	-7.230984692063489	7.012527906307701	-0.2953450263603214	5.654102036476838	0.00283864962471486	-9.47752075037212e-08	0.0003275293663402036	-0.0004711930407887424	0.0003603767665464103	0.0002500757772013751	-0.0001157195856997394	-8.539041603291807e-05
0.08493333333333317	1.432538220099191	-0.0722858844361487	-0.5698170239293394	-0.2800628794107135	-0.1627806282320333	-0.2268230020999908	-5.906948585339773	4.756566953370157	-1.620543769639172	6.039132405431187	-0.00117762675545436	1.895504150060219e-07	0.0001086202559341445	-0.0007456556657340253	-0.0003059014317238454	0.0004431714925639633	-0.0002269333022317985	2.479239305118971e-05
0.08819999999999982	1.415315281764502	-0.06005683591748973	-0.5769010637881309	-0.2593530342535051	-0.1627894224837013	-0.2268230020999908	-4.847669282647677	3.287164932206157	-1.941344429332418	6.759126559364804	-0.002670198351587871	-9.477520750412435e-08	0.0005802716173200055	-0.0001762777252285404	0.0007608084135042449	0.000145052356689909	-5.248768783739609e-05	-0.0001966032007972626
0.09146666666666649	1.399495030720466	-0.04717355263460585	-0.5774353176657592	-0.2351273412816966	-0.1627880356452914	-0.2268230020999908	-5.048160448204501	5.157118849834391	2.389529280052708	8.191692291921083	0.00505569370037258	1.89550415006023e-07	0.001051922978705866	0.0003931002152769441	0.001827518258732336	-0.0001530667791841454	0.0001219579265570064	-0.0004179987946457149
0.09473333333333316	1.382448022039592	-0.02656232301541755	-0.561595224907655	-0.2062940002493544	-0.1627804853708952	-0.2268230020999908	-5.251555339467094	6.804427003777368	6.490296428453171	9.247593891507648	-0.0001534680146726465	-9.477520750420696e-08	0.0002302705683470102	-0.0003799460236622041	0.000668361794859233	0.0001128580565182809	-4.179807504498532e-05	-7.653324825781127e-05
0.0979999999999998	1.366081427413323	-0.007014115109750662	-0.5403775574033768	-0.1761064222548149	-0.1627872115260921	-0.2268230020999908	-4.631580414772964	4.506289229311047	5.681921981792105	9.020816962654148	-0.003684977479106346	1.895504150060627e-07	-0.0005913818420118461	-0.001152992262601353	-0.0004907946690138703	0.0003787828922207072	-0.000205554076646977	0.0002649322981300924
0.1012666666666665	1.351978674759579	0.002418944027142748	-0.525602948569252	-0.1466304300948565	-0.1627894777459304	-0.2268230020999908	-4.130926454725526	1.892256388090331	3.828894511954276	9.505431752805631	0.00163130763692457	-9.477520750341951e-08	7.020440472306496e-07	-0.0004468493441195289	-2.275171560469293e-05	0.0002795953657898774	-0.0001409782204767	2.035004856010191e-05
0.1045333333333331	1.338255340310036	0.009420221445221446	-0.512323214169298	-0.1108700785019815	-0.1627809060798134	-0.2268230020999908	-4.399283555058068	3.017443279016323	4.766692736381518	12.86838396239908	0.002950462901682049	1.895504150060615e-07	0.0005927859301063075	0.0002592935743622959	0.0004452912378044844	0.0001804078393590475	-7.640236430642298e-05	-0.0002242322010098884
0.1077999999999998	1.32314915092558	0.02339571681412731	-0.493372662757513	-0.06380013617236556	-0.1627811209468823	-0.2268230020999908	-4.758907060787125	5.21824976348657	6.689425781100235	15.02438859484999	-0.002136132866039057	-9.477520748671427e-08	8.413666089294159e-05	0.0002693496745278482	0.0003531487191241111	-0.0001899244971069687	9.622230719615706e-05	-4.962335274441959e-05
0.1110666666666665	1.307755059693855	0.04141733296874313	-0.4695745303989977	-0.01875772829338508	-0.1627886823900297	-0.2268230020999908	-4.575549992163991	5.494660086598114	7.734599438472846	11.62703633956497	-0.001547440819875743	1.895504150060614e-07	-0.0004245126083204243	0.0002794057746934006	0.0002610062004437378	-0.0005602568335729848	0.0002688469786987371	0.0001249854955210492
0.1143333333333331	1.293508918399225	0.05812124534602113	-0.4434819653850653	0.01243015854748422	-0.1627862977271601	-0.2268230020999908	-4.159042599722785	4.734624965186466	8.199275846492817	8.509557365192807	0.001958607471154971	-9.477520750294458e-08	-2.806535549070191e-05	-0.0003485144613126507	0.0002624821881152438	0.0001029333343431405	-4.99098501542019e-05	2.553958668441441e-05
0.1175999999999998	1.280501208287191	0.07236589557050811	-0.4162748697291997	0.0436455780001475	-0.1627827385172415	-0.2268230020999908	-3.81732681914615	3.988989380807661	8.416965137615518	11.64389304066334	-0.0008283303816631506	1.895504150060494e-07	0.0003683818973390205	-0.0009764346973187022	0.0002639581757867503	0.0007661235022592658	-0.0003686666790071408	-7.390632215222049e-05
0.1208666666666664	1.268567252138155	0.08400531773867037	-0.3884127336099839	0.08846961184297598	-0.1627856876048635	-0.2268230020999908	-3.476210334358385	3.054955332465254	8.692174478788274	14.72226040584825	-0.0006186923251515392	-9.477520750123992e-08	-8.148583321623826e-05	-0.000468106121807922	0.000338721383009651	0.0001314651508200177	-6.318611804168163e-05	5.69025786934783e-05
0.1241333333333331	1.257874682629302	0.09178768719668143	-0.3591548287841414	0.1327937464642509	-0.1627844381716289	-0.2268230020999908	-3.057294182298036	1.627528537857872	9.271517406978866	11.33783229277341	0.001742192591815506	1.895504150060595e-07	-0.0005313535637714972	4.02224537028581e-05	0.0004134845902325516	-0.0005031932006192304	0.0002422944429237777	0.0001877114795391772
0.1273999999999997	1.247830306303106	0.09480637384051947	-0.3277176739681784	0.1615707727359197	-0.1627848508852626	-0.2268230020999908	-3.305775348661926	0.3513875884896535	9.961059232343201	7.030975817781371	-0.001066804781556003	-9.477520750325553e-08	-0.0007577843831054433	-0.0002883232897083003	0.0003028606616906584	-0.0001884846285289494	8.234854599682057e-05	0.0002444302429435403
0.1306666666666664	1.234882401387227	0.09493759155826521	-0.2941716936864476	0.1836308963760383	-0.1627853445746397	-0.2268230020999908	-4.834964747408829	-0.1403095801578922	10.5626350390816	7.225442926518173	0.001692615606090487	1.895504150060593e-07	-0.0009842152024393896	-0.000616869033119459	0.0001922367331487648	0.0001262239435613315	-7.759735093013656e-05	0.0003011490063479034
0.1339333333333331	1.217942189181993	0.09385280640457969	-0.2593787258787368	0.2101897904435746	-0.1627849340741631	-0.2268230020999908	-4.929998831054743	-0.4640545673819285	10.65506888583907	9.026390969198545	-0.0007835769490550242	-9.477520750464207e-08	0.0008129803261123051	-0.0001258156826692396	1.259740198261734e-06	0.0003015960820591528	-0.0001376385107951426	-0.0002188364950254545
0.1371999999999997	1.206636162465978	0.0922963965688517	-0.225108115886994	0.2425463892233387	-0.162786166893387	-0.2268230020999908	-1.385463427478568	-0.4290593854900585	10.24282413134624	10.77505805645353	0.0006865015037988497	1.895504150060637e-07	0.002610175854663999	0.0003652376677809794	-0.0001897172527522413	0.0004769682205569741	-0.0001976796706601487	-0.0007388219963988123
0.1404666666666664	1.208027828340722	0.09256237814597738	-0.192248459076309	0.2799406764253577	-0.1627845601827888	-0.2268230020999908	1.531647924124512	0.6063375082330384	9.814578813260344	11.39298955020287	0.0001363106693263191	-9.477520750343668e-08	0.0002627397197243934	0.0006656616291473497	-0.0003795198960050488	-0.0002686811936838811	0.0001222187144981162	-8.246999451254119e-05
0.143733333333333	1.212031337449373	0.09635209238272549	-0.1613831289783366	0.3122346831734097	-0.1627863274665426	-0.2268230020999908	0.2136242667506717	1.728327957135885	9.021807776624239	7.652437370351231	-0.001379209323949841	1.895504150060684e-07	-0.002084696415215213	0.0009660855905137202	-0.0005693225392578563	-0.001014330607924736	0.0004421170996563811	0.0005738820073737299
0.1469999999999997	1.208862817292349	0.1018414559646766	-0.1333457412883117	0.328657131688272	-0.1627848152237235	-0.2268230020999908	-1.719207641216866	1.320772928523922	8.367205383442089	3.159624747486078	0.001462672123946349	-9.477520751060893e-08	-0.0006040323201185885	-0.0001833091226061662	0.0002062989801622704	-0.0001360597791177959	5.633499577523793e-05	0.0001894946925384473
0.1502666666666664	1.203636783441672	0.1029444803075875	-0.1052587185875153	0.3378265766340725	-0.1627822750229823	-0.2268230020999908	-1.046077994669521	-0.9571858626847433	9.052196558729239	3.21182294031317	-0.0007498473308205881	1.895504150060672e-07	0.0008766317749780358	-0.001332703835726053	0.0009819204995823937	0.0007422110496891444	-0.0003294471081059053	-0.000194892622296834
0.153533333333333	1.201834797609435	0.09700745674537499	-0.07389752964667298	0.3518020920087732	-0.162787698393623	-0.2268230020999908	-0.4736009040882019	-2.150893781618367	9.912634534511145	4.951370824357627	-0.0017259661608724	-9.477520750315787e-08	-0.000363465543166818	1.323945234754164e-05	2.480620338531768e-05	-3.37197133500796e-05	5.625471557883385e-06	0.0001074186440403721
0.1567999999999997	1.197821965392029	0.09233394817375186	-0.04203736558290879	0.3676063371169218	-0.1627880331674832	-0.2268230020999908	-2.399657414160854	-0.183605256201142	9.357691531946656	4.331453389362926	0.002365620085736482	1.895504150060846e-07	-0.001603562861311672	0.001359182740421136	-0.0009323080928117584	-0.0008096504763893035	0.000340698051221672	0.0004097299103775781
0.1600666666666663	1.186663622418976	0.09538308997427078	-0.01400039497866977	0.37869775179541	-0.1627819111642572	-0.2268230020999908	-3.945394102512252	1.617938415631454	7.774179886398363	2.73096238819639	0.0008213836624871469	-9.477520750452476e-08	-7.2970772349028e-05	0.000514559202844879	-0.0006846302151386822	-0.0001808496729148585	7.011758005947477e-05	-1.189673948875474e-05
0.163333333333333	1.175224425905564	0.100078888595413	0.00853428719112556	0.3872240824192395	-0.1627863330493043	-0.2268230020999908	-2.571608561319012	0.8245519809151085	5.988943510858758	2.76099376406166	-0.004089821714137564	1.895504150060837e-07	0.001457621316613616	-0.0003300643347313777	-0.0004369523374656063	0.0004479511305595865	-0.0002004628911027225	-0.0004335233893550872
0.1665999999999997	1.170534602470151	0.1005764317126173	0.02569993679693694	0.3972401941338534	-0.1627884636161392	-0.2268230020999908	-0.5327969803805954	-0.3001776947293018	4.647939113392347	3.047316668291772	0.001736738097986188	-9.477520750200234e-08	0.0006650921442478866	0.0001481806684865191	-0.0003332028553777666	2.08330527205947e-05	-7.556100936095835e-06	-0.0001944200889127956
0.1698666666666663	1.170220663169629	0.09955346719077786	0.03973252412048396	0.4050163992849994	-0.1627818375726832	-0.2268230020999908	0.1075041743292717	-0.1063710633974929	4.070742113554063	1.389622398673157	0.001271368259860158	1.895504150060842e-07	-0.0001274370281178445	0.0006264256717044161	-0.0002294533732899264	-0.0004062850251183971	0.0001853506892305308	4.468321152949589e-05
0.173133333333333	1.170619594973166	0.1000935395200875	0.05235212943630967	0.4061615186938003	-0.162783455028195	-0.2268230020999908	0.1666085865868216	0.3276113994683555	3.568087782382977	-0.3548191890044606	-0.001530965646592388	-9.477520750279257e-08	7.033583182182695e-05	0.0002707788514402707	-0.0003041376145259236	-0.0001056326147576452	4.267117970167656e-05	-3.115918567945201e-05
0.1763999999999996	1.171504315425834	0.1009790092123954	0.06247263168887154	0.4048784839181355	-0.1627870660957872	-0.2268230020999908	0.4049257962461931	0.1050967098667569	2.540679013596587	-0.09700261222420231	5.07894351142097e-05	1.895504150060842e-07	0.0002681086917614984	-8.486796882387472e-05	-0.000378821855761921	0.0001950197956031066	-0.0001000083298271777	-0.0001070015828883999
0.1796666666666663	1.173333439251591	0.1006075842939472	0.06908460273441704	0.405866044570153	-0.1627854540535963	-0.2268230020999908	0.7076070295197919	-0.2846876593077792	1.63262224234611	0.4629059096447062	0.0006633401592256102	-9.477520750363129e-08	0.0001553492070858881	5.83468703496394e-05	-0.0001673114933420945	9.483809331872163e-06	-8.850224065745098e-06	-5.259219527784478e-05
0.182933333333333	1.176079400510672	0.09943142197569615	0.07395678102884314	0.4063431281295581	-0.1627845147954942	-0.2268230020999908	0.9662548370566225	-0.387599657359445	1.475499778217357	-0.4095396077011688	-0.0003611191907258257	1.895504150060842e-07	4.258972241027781e-05	0.0002015617095231539	4.419886907773202e-05	-0.0001760521769393622	8.230788169568753e-05	1.817192332710339e-06
0.1861999999999996	1.179564744148653	0.09822815032269328	0.07898892490922188	0.4028909936878071	-0.1627846565801552	-0.2268230020999908	1.149834760586351	-0.3479567844045521	1.561642315978963	-1.555830550255735	0.0001697440120921453	-9.477520750953763e-08	3.639829339553104e-05	0.0001331883776678351	-3.712483778295244e-05	-8.733407544828903e-05	3.775523114274787e-05	-8.215427873508808e-06
0.1894666666666663	1.183475398432514	0.09716555551006938	0.08387359698714079	0.3971464879362425	-0.1627840889804715	-0.2268230020999908	1.226649110044836	-0.3014709795774342	1.385210919568717	-1.813032246361959	7.319775504017444e-05	1.895504150228986e-07	3.02068643807843e-05	6.481504581251628e-05	-0.000118448544643637	1.384026042784132e-06	-6.797419410191808e-06	-1.824804807972797e-05
0.1927333333333329	1.187526400406086	0.09626198912752036	0.08790114917519989	0.3915395173611493	-0.1627862074370176	-0.2268230020999908	1.254668828646534	-0.2517865245681005	1.082518524459957	-1.616049673944864	-0.000882713695316938	-9.477520748699047e-08	3.282843866666257e-05	5.971604643914175e-05	-0.000114038226720341	4.167151892046112e-06	-8.054769109222774e-06	-1.826543936428524e-05
0.1959999999999996	1.191679837418167	0.09552020005266967	0.09095834162903016	0.3866128438208376	-0.162786671054573	-0.2268230020999908	1.289364439744419	-0.2024236483335672	0.7911131231020995	-1.396523857720214	0.001086364484061148	1.895504150170326e-07	3.545001295254083e-05	5.461704706576723e-05	-0.000109627908797047	6.950277741308088e-06	-9.31211880825373e-06	-1.828283064884224e-05
0.1992666666666663	1.195987187989636	0.09487179072046616	0.09325352987363825	0.3821413190391038	-0.1627824191640454	-0.2268230020999908	1.357576242005504	-0.2153735427381048	0.6685857732549872	-1.428633184793522	0.0009844795930295642	-9.477520750667598e-08	3.131088793128774e-05	3.288435381250512e-05	1.774976549210698e-05	-2.886004720477721e-05	1.04193972876055e-05	-8.6618302686042e-06
0.2025333333333329	1.200613279034161	0.09397712192059253	0.09568238182539622	0.3767075134626987	-0.1627837171687051	-0.2268230020999908	1.484511668146136	-0.3531947509889315	0.872948045846768	-1.985675364661854	-0.002311530528546134	1.895504150173672e-07	2.717176291003463e-05	1.115166055924302e-05	0.0001451274397812608	-6.46703721508625e-05	3.015091338346473e-05	9.591701116338413e-07
0.2057999999999996	1.205633800005562	0.09273662413961108	0.09894272258965668	0.3695858137877315	-0.1627881539372245	-0.2268230020999908	1.565131920305914	-0.3325565011954696	1.063960963995986	-2.160412377566466	-0.0002835932180207266	-9.477520750821091e-08	1.192861225967243e-05	3.383760578741359e-05	-3.004467953013791e-05	9.624018635634055e-06	-9.887735141108665e-06	-9.58626403094117e-06
0.2090666666666662	1.210681061805776	0.09228616905577006	0.102246702597433	0.3639918447132408	-0.1627847777121295	-0.2268230020999908	1.500883604154495	0.1305048595052179	0.8996659500398602	-1.050330099064237	0.002471934949682993	1.895504150173883e-07	-3.314538390689808e-06	5.652355101558417e-05	-0.0002052167988415368	8.391840942213062e-05	-4.992638366568206e-05	-2.013169817351618e-05
0.2123333333333329	1.215379192089372	0.09343419771611872	0.1047098754224449	0.3624274868312677	-0.1627818581772611	-0.2268230020999908	1.37912548474762	0.4505967054857332	0.6339820929236026	-0.2115038007290555	-0.0004563594666002334	-9.477520750833668e-08	-5.639540833436217e-05	4.966758916441249e-05	-5.422713672793063e-05	-1.767282504473853e-05	2.022706605577081e-06	1.141344477447711e-05
0.2155999999999996	1.219714886552571	0.09443448311482264	0.1065558615185144	0.3606234699310541	-0.1627862689736288	-0.2268230020999908	1.278984122279141	0.0400498013552452	0.5217965241567487	-1.197060110231868	-0.002016022949981849	1.895504150174515e-07	-0.0001094762782780345	4.281162731324078e-05	9.676252538567578e-05	-0.0001192640595116077	5.397179687683622e-05	4.295858772247035e-05
0.2188666666666662	1.223741465061766	0.09379600443803766	0.1083097910813531	0.3546082737624338	-0.1627877671049002	-0.2268230020999908	1.18697897938193	-0.2776838688801066	0.584915396191348	-2.180977271891499	0.0007565642654469587	-9.477520750896008e-08	-6.404423222895721e-05	4.89010630225344e-05	3.889509832498592e-05	-3.703091769569368e-05	1.27449420147779e-05	1.827143958026415e-05
0.2221333333333329	1.227474460778606	0.09362165397078329	0.1105921084018842	0.3483653588659711	-0.1627835620254147	-0.2268230020999908	1.099239555531256	0.3242099296392304	0.8452992329480786	-1.336479739523169	0.001475738737808235	1.895504150174524e-07	-1.861218617987993e-05	5.499049873182802e-05	-1.897232873570397e-05	4.520222412022033e-05	-2.848191284728042e-05	-6.41570856194207e-06
0.2253999999999995	1.230943427424062	0.09581099129204826	0.1136536449689542	0.3460053515955384	-0.1627830580921759	-0.2268230020999908	1.026553547225421	0.8309816528167574	0.9413530271741335	-0.3737114698771863	-0.0007800342895098471	-9.47752075087149e-08	-2.755256317324042e-05	1.464930333186073e-05	-4.548172503537701e-05	1.026452952258105e-05	-1.083778883343541e-05	1.610515946802314e-06
0.2286666666666662	1.234193925643333	0.09784063648950525	0.116168930010607	0.3441905571097557	-0.1627861287133329	-0.2268230020999908	0.9654833762342683	0.2264392415935247	0.5108595235090839	-1.002675993819109	-0.0007127639535917756	1.895504150174534e-07	-3.649294016660091e-05	-2.569189206810655e-05	-7.199112133505006e-05	-2.467316507505823e-05	6.806335180409592e-06	9.636740455546697e-06
0.2319333333333329	1.237347807695949	0.09729305416132976	0.1170297769238641	0.339073423487448	-0.1627861012013339	-0.2268230020999908	0.9952964354559476	-0.3754023060499383	0.1162103828048664	-1.981183489929861	0.0005007987195348601	-9.477520750889313e-08	4.649407058450597e-05	9.384411056003977e-05	-3.847228734685248e-05	-5.988350078209465e-05	2.44170337581624e-05	-1.044705764277391e-05
0.2351999999999995	1.240891428914219	0.09660511204823258	0.1175816402464887	0.3322208108376175	-0.1627843517158906	-0.2268230020999908	1.204099191940154	0.14050467939665	0.3216858965912673	-2.065214173935196	0.0003415055020859927	1.89550415017453e-07	0.0001294810813356128	0.0002133801131881861	-4.953453358654937e-06	-9.509383648913109e-05	4.202773233591519e-05	-3.053085574109446e-05
0.2384666666666662	1.245241775753265	0.09827332489663804	0.1192210253765697	0.326092805237481	-0.1627843030520359	-0.2268230020999908	1.437502866607421	0.7131622345190346	0.6083680518215805	-1.680120068162115	-0.0002361287101913458	-9.477520751008397e-08	8.775708702504e-05	-1.787150272870694e-05	7.023850827419282e-06	2.958759995231118e-05	-1.735889751737663e-05	-3.051073969103184e-05
0.2417333333333328	1.250140193735714	0.1001688777577176	0.1210751234610292	0.3212865317444685	-0.1627854006171757	-0.2268230020999908	1.539652953207655	0.2796924422583478	0.4531428074352394	-1.25599043487982	-0.0003602673517580121	1.89550415017484e-07	4.603309271446712e-05	-0.0002491231186456	1.900115501349347e-05	0.0001542690363937534	-7.674552737066845e-05	-3.049062364096919e-05
0.2449999999999995	1.255286685948439	0.09993356128805157	0.1220306743048226	0.3175281561512079	-0.1627858661330327	-0.2268230020999908	1.628674672656651	-0.3068005939089488	0.1606153155787729	-1.160432705307111	8.665905970015439e-05	-9.477520750852857e-08	7.278314741051633e-05	1.894053130780448e-05	-4.498714559026741e-05	-5.895222481747855e-06	-1.198397015392794e-06	-2.24069136815959e-05
0.2482666666666662	1.26089463990182	0.09892860649872583	0.1223121598846619	0.3129512425936167	-0.1627847599553994	-0.2268230020999908	1.822180549527564	-0.1915146922272596	0.04044978868792152	-1.757136127327025	0.0006019939687752806	1.89550415017484e-07	9.953320210656549e-05	0.0002870041812612089	-0.0001089754461940283	-0.0001660594813572491	7.434873333988285e-05	-1.43232037222226e-05
0.2515333333333328	1.26717636934001	0.09878678943827485	0.1223601660944681	0.305956457807144	-0.1627837577639224	-0.2268230020999908	2.002640904848703	0.01932598776409276	-0.02082380373804782	-2.43880404446737	-2.056817288938115e-05	-9.477520750965893e-08	5.055887747712058e-05	7.877515902204551e-05	-3.546378773603687e-05	-4.808021981330521e-05	1.871679025020711e-05	-1.233140590408124e-05
0.2547999999999995	1.273840476229328	0.09849717165809567	0.122112309296021	0.2975833861932644	-0.1627851044515038	-0.2268230020999908	2.056289193074789	-0.2820049287955815	-0.1406908286100315	-2.600985205331163	-0.0008360952506620365	1.895504150174838e-07	1.584552847675657e-06	-0.0001294538632171179	3.80478707219545e-05	6.989904173063872e-05	-3.691515283946864e-05	-1.033960808593991e-05
0.2580666666666662	1.280609434252635	0.09694254386361111	0.1214484617305945	0.2893767292929214	-0.1627865428966718	-0.2268230020999908	2.1077164724735	-0.5847498927146115	-0.2531312531194878	-2.383094448231622	-1.931905784405263e-05	-9.477520750914164e-08	6.391659292905749e-05	-2.230914176224548e-05	-1.915944476284593e-05	3.411472195629735e-05	-2.0463564795811e-05	-2.427721540610531e-05
0.2613333333333328	1.287739895437843	0.09523251870309848	0.1205409377700467	0.2822778096629131	-0.1627850655954921	-0.2268230020999908	2.277617659544606	-0.3771461733025773	-0.2898804582762294	-1.922778713289432	0.0009490555744397104	1.895504150174835e-07	0.0001262486330104393	8.483557969262689e-05	-7.636676024764635e-05	-1.669597818044018e-06	-4.011976752153378e-06	-3.821482272627071e-05
0.2645999999999994	1.295465919413546	0.09453347020299493	0.1196020424301605	0.2766239601287427	-0.1627832977635102	-0.2268230020999908	2.425878611663664	-0.1190003957191135	-0.2829430389633989	-1.637349418322252	7.569960118831252e-05	-9.477520750828602e-08	2.932554403100333e-05	3.82231810119293e-05	-6.151179294366638e-06	-1.645331291899885e-05	3.484515828254355e-06	-9.201821189967501e-06
0.2678666666666661	1.303414382103124	0.0940097525338728	0.1187055110930647	0.2709363544733602	-0.1627849472855445	-0.2268230020999908	2.413804627222659	-0.269800766579263	-0.2639433137107303	-1.943445726276412	-0.001143201986501911	1.895504150174835e-07	-6.759754494843265e-05	-8.389217668768307e-06	6.406440165891304e-05	-3.123702801995368e-05	1.098100840866209e-05	1.981118034633572e-05
0.2711333333333328	1.311192465568007	0.09274311674061896	0.1178170899783714	0.2639351614438738	-0.1627867702360241	-0.2268230020999908	2.361674102044256	-0.4459977769148099	-0.3007888299444801	-2.242089066244306	2.303556209157028e-05	-9.477520750864508e-08	-6.199543264099497e-06	3.911927729333777e-05	-3.243740124170342e-05	-1.172367900937521e-05	1.042168296145071e-07	1.488583323698271e-07
0.2743999999999994	1.318931446741492	0.09148589308021673	0.1166044585243204	0.2569473173807077	-0.16278482340526	-0.2268230020999908	2.389864448815623	-0.2640382362619585	-0.4624394398480273	-1.935272889753733	0.001164827346391852	1.895504150174835e-07	5.519845842023365e-05	8.662777225544385e-05	-0.0001289392041423199	7.789670001203258e-06	-1.077257474943307e-05	-1.951346368159608e-05
0.2776666666666661	1.32673216756135	0.09112082185977648	0.1149069683058581	0.2515556491697302	-0.1627837036867703	-0.2268230020999908	2.349961026930508	0.01230498630622328	-0.5217524946778417	-1.385353028650754	-0.0002979486696976413	-9.477520750890957e-08	-7.562490587727023e-05	-1.18649991353559e-06	2.195054174628705e-05	1.638054188284628e-05	-1.359643255952649e-05	1.567987293386816e-05
0.2809333333333328	1.334048501946214	0.09138191330613438	0.1135555824607049	0.2477682611038569	-0.1627855852698397	-0.2268230020999908	2.093301325350018	0.1193266617777572	-0.2505388031282241	-0.9530605560164175	-0.0006727042204073488	1.895504150174836e-07	-0.0002064482701747741	-8.900077208251504e-05	0.000172840287634894	2.497141376448929e-05	-1.642029036961989e-05	5.08732095493324e-05
0.2841999999999994	1.340296972930785	0.09168667815630872	0.113318918877456	0.2451181682313052	-0.1627853395037627	-0.2268230020999908	1.734187881706234	0.02997637471842479	0.06536569278115234	-0.7148166049768606	0.0005285533540890372	-9.477520750843643e-08	-0.0001951167637578083	-8.157301101274624e-05	0.000120545435709405	2.148659584696005e-05	-1.541351033686331e-05	4.81741415455485e-05
0.2874666666666661	1.345390908321177	0.09133414605870584	0.1137194949989368	0.2428016999897256	-0.1627840569045607	-0.2268230020999908	1.386442798301327	-0.28310004094297	0.1396079548696364	-0.7488005778701963	-3.790842957312443e-05	1.895504150174837e-07	-0.0001837852573408424	-7.414524994297744e-05	6.825058378391608e-05	1.800177792943081e-05	-1.440673030410671e-05	4.54750735417646e-05
0.2907333333333327	1.349420558559311	0.08992070545208142	0.1140798276369968	0.239946258211264	-0.1627855165189598	-0.2268230020999908	1.098903198257853	-0.5192146677518882	0.07515286088651207	-1.039355794231978	-0.000574737951571341	-9.47752075089998e-08	-0.0001294530543459083	7.408056118392547e-05	-1.228414348480419e-05	-5.466397502139139e-05	1.933079774231034e-05	3.917735856510616e-05
0.2939999999999994	1.352689402108114	0.08835391655908491	0.1141722671340956	0.2357503876168556	-0.1627859760246048	-0.2268230020999908	0.9206427844257448	-0.3769867468850188	-0.02440825388207118	-1.569471281511098	0.0005744030525003139	1.895504150176458e-07	-7.51208513509742e-05	0.0002223063723108283	-9.281887075352447e-05	-0.0001273297279722136	5.306832578872738e-05	3.287964358844773e-05
0.2972666666666661	1.355488700257773	0.08751960442901517	0.1140548342915512	0.2301341899592682	-0.1627842617755294	-0.2268230020999908	0.7918036671090869	-0.178422456382674	-0.0009520777331435207	-1.694384235577374	0.0003669937940231577	-9.477520751002267e-08	-7.174012283674875e-05	-3.576531836642486e-05	6.06297208416942e-05	2.372343343900959e-05	-1.611285473413861e-05	1.365072127131338e-05
0.3005333333333327	1.357853310284616	0.08689679823631494	0.1144700907631973	0.2258213451964552	-0.1627842848687216	-0.2268230020999908	0.6545071990280171	-0.247493315842458	0.3017280609283993	-0.7715001214451157	-0.0004892758868436086	1.895504150179211e-07	-6.83593943225233e-05	-0.0002938370090436781	0.0002140783124369127	0.0001747765948502327	-8.529403525700462e-05	-5.578201045820963e-06
0.3037999999999993	1.359847294561461	0.08589654496894078	0.1159097316805689	0.2250754647411948	-0.1627856748866416	-0.2268230020999908	0.5924794513467867	-0.3215306209657352	0.4980524427348825	0.1353486034605214	-0.0002974379805070153	-9.477520750916947e-08	1.396796876411804e-05	-5.102484627258741e-07	-1.805214117938587e-05	2.164730256894908e-05	-1.550877163716781e-05	-8.649841558950107e-06
0.307066666666666	1.361895218375151	0.08507952152835531	0.1171907023435122	0.2255329546426064	-0.1627858079224474	-0.2268230020999908	0.6875314052597037	-0.1353117892371368	0.2045830071967735	-0.03474276021734775	0.0002803049994685913	1.895504150179302e-07	9.629533185075937e-05	0.0002928165121182263	-0.0002501825947956844	-0.0001314819897123346	5.427649198266898e-05	-1.172148207207925e-05
0.3103333333333327	1.364313989192496	0.08507840227084641	0.1172648478711265	0.2245850997486237	-0.1627846524639292	-0.2268230020999908	0.7596206706833728	0.11085535555189	-0.07226273652221868	-0.4473315217388614	0.0003198324261712605	-9.477520750923292e-08	-2.028029243423317e-05	9.174573772364991e-05	-3.010028475403253e-05	-4.648028084600444e-05	1.642713813987989e-05	8.716388819926928e-06
0.3135999999999993	1.366637717050401	0.08564847151458627	0.1172864961228504	0.2232522563010623	-0.1627844192868216	-0.2268230020999908	0.6293418382562884	0.2143954564253574	0.1724418178761458	-0.2704500379186721	-0.0002843570886806679	1.895504150179346e-07	-0.0001368559167192257	-0.0001093250366709265	0.0001899820252876193	3.85214280203257e-05	-2.14222157029092e-05	2.91542597119331e-05
0.316866666666666	1.368339111258823	0.08622690430795453	0.1185298748871951	0.2229730355508475	-0.1627852590832986	-0.2268230020999908	0.4189202476266178	0.0866450871303189	0.5444528886036951	0.04894754143608937	-0.0001736734519702644	-9.47752075093061e-08	-0.000110737419622782	-0.0001219159428036341	0.0001426341800080885	4.406135868886553e-05	-2.436340854506279e-05	2.188238255291517e-05
0.3201333333333327	1.369417731462309	0.08586761979492841	0.1205537853533507	0.2232417802622844	-0.1627851872336654	-0.2268230020999908	0.2480516311528454	-0.3597171801426101	0.6503183700052588	0.06503902023544936	0.0002737935910689833	1.895504150179351e-07	-8.46189225263383e-05	-0.0001345068489363416	9.528633472855613e-05	4.960128935740377e-05	-2.730460138721637e-05	1.461050539389735e-05
0.3233999999999994	1.370055346026827	0.08422785082798386	0.1223816948676056	0.2232535243968605	-0.162784084398459	-0.2268230020999908	0.1658068009630898	-0.4834934534970555	0.3917275289496179	-0.05126627028219806	0.0001601221583317945	-9.477520777926074e-08	1.065304852217916e-05	0.0002182946134842833	-0.0002236033882092171	-7.384962948113926e-05	2.570769395109371e-05	4.752045720527192e-06
0.326666666666666	1.370654419393685	0.08375889562674679	0.1226094670253069	0.2229498460578311	-0.1627857175268272	-0.2268230020999908	0.2244549795241985	0.3571075743721932	-0.3293575625786426	-0.1280767799311143	-0.001401286148460786	1.895504197935203e-07	0.0001059250195706966	0.0005710960759049081	-0.0005424931111469904	-0.0001973005483196823	7.871998928940451e-05	-5.106413952725384e-06
