PathFileType	4	(X/Y/Z)	mouse_tracked.trc
DataRate	CameraRate	NumFrames	NumMarkers	Units	OrigDataRate	OrigDataStartFrame	OrigNumFrames
	15.00	15	20	4	m	15.00	1	102
Frame#	Time	handm	wristm	shoulderm	elbow	
X1	Y1	Z1	X2	Y2	Z2	X3	Y3	Z3	X4	Y4	Z4	

0.06	0.0112183197960191	-0.00241094076646964	-0.202010508824954	0.00703108664012923	-0.00157841809597932	-0.20144315513088	-0.00162103119352041	0.010623360321614	-0.196453050600855	-0.000873501356851538	-0.00157778888585935	-0.196752998582375	
0.0666666666666667	0.0112128548866001	-0.00240798089176108	-0.202043145452033	0.00703947027257632	-0.0015724030023036	-0.201451072341135	-0.00160513415365382	0.0106265030903594	-0.196472779189999	-0.000857540101801086	-0.00157171121333788	-0.196708018443344	
0.0733333333333333	0.0112214872746535	-0.0024011765178252	-0.202065880320585	0.00705289438166594	-0.00156113363837329	-0.201482301236066	-0.00162453649995866	0.0106271314092884	-0.196524359124547	-0.000851516924719436	-0.00157359318967961	-0.196717223139364	
0.08	0.0112596512217398	-0.00239812200471915	-0.202123628415716	0.00707840810187355	-0.00157745326308389	-0.201646045135902	-0.001659418857883	0.0106749961365734	-0.196636630676871	-0.000796108618682205	-0.00158526872980512	-0.196582994814765	
0.0866666666666667	0.0112380061281355	-0.00238244437440762	-0.202313972564596	0.00716052468662394	-0.00155060492055309	-0.201685935765592	-0.00159486933486155	0.0106769380494622	-0.196569466516633	-0.00066592651001269	-0.00151484435996114	-0.196467804943685	
0.0933333333333333	0.0112575142021094	-0.00237123200335693	-0.202371173026878	0.00719343808375868	-0.0015519971298702	-0.201737290019517	-0.00155335448567821	0.0107306271577534	-0.196539397995644	-0.000553526008891997	-0.00154676656757394	-0.196393953673396	
0.1	0.0112855144443257	-0.00237393371307877	-0.20246708674186	0.00722318080730611	-0.00153764687563166	-0.201790164310441	-0.00150324810432561	0.0107156375839415	-0.196486440700136	-0.000524656931053196	-0.00155676783063706	-0.196438595822086	
0.106666666666667	0.0113418920127912	-0.00237511534803548	-0.202473648437017	0.00727808626337328	-0.00155297464153127	-0.201762175057261	-0.00150416214744906	0.0106982375588903	-0.196479435025775	-0.00052414826458976	-0.001563865814607	-0.196399072734586	
0.113333333333333	0.0113754755272728	-0.00236873506573481	-0.202533803816015	0.00731411919809554	-0.00156625748532421	-0.201858938574324	-0.00149935370261496	0.0106854939825678	-0.196467187593878	-0.000524946987820651	-0.0015679092869659	-0.196452337066727	
0.12	0.0113803017349335	-0.00234245770974874	-0.202514313778493	0.00733581641157409	-0.00155029692610929	-0.201812840113475	-0.00147420576109885	0.0106681939159647	-0.196469468562815	-0.000510525885515047	-0.00159068862690924	-0.196473194023121	
0.126666666666667	0.0114110025080427	-0.00232867260661616	-0.202476794729303	0.00736901016003983	-0.00151858612860873	-0.201825330036345	-0.00147500966161942	0.0106445954145911	-0.196510515388128	-0.000489034145925827	-0.0015862102487871	-0.196521436564868	
0.133333333333333	0.0114694699088225	-0.00234333488170848	-0.20246686527505	0.0074504044824407	-0.00156110485897425	-0.201796942086121	-0.00149023519019088	0.0106870800710502	-0.196530794569558	-0.000521325116139746	-0.00157229737457957	-0.196539207943578	
0.14	0.0115031449305979	-0.00231190528552221	-0.202601345227256	0.00749118415989337	-0.00159441499643381	-0.201806387097071	-0.00150423722413718	0.0106654113916181	-0.196577106374927	-0.00053842885689966	-0.00159985312324958	-0.196534275517649	
0.146666666666667	0.0115253383189472	-0.00230688608084026	-0.202672025171614	0.00753387251041647	-0.00164577612192713	-0.201849851906356	-0.00147621820924875	0.0106138952075058	-0.196552391836508	-0.00063185635396246	-0.00164048048406588	-0.196747199966144	
0.153333333333333	0.0115378437203625	-0.00228898625696339	-0.202755240716114	0.00755442160339257	-0.00165251402960256	-0.20197341108335	-0.00142046500953958	0.0105081289371863	-0.196495091748311	-0.000583084670081839	-0.0017100199045762	-0.19684755302169	
0.16	0.0115724277510836	-0.00231059688066332	-0.202871217887936	0.00756277640381515	-0.00170433165083511	-0.202029390390468	-0.00149968262833195	0.010493243566967	-0.196555324093849	-0.000587867630098383	-0.00172358837292443	-0.196829262513999	
0.166666666666667	0.0115893310669817	-0.00232009687973173	-0.203100049145542	0.00756931878857839	-0.00176599000956958	-0.20222926795566	-0.00152368283432877	0.0104857461639815	-0.196591224657286	-0.000586493386715178	-0.00172280354497386	-0.196828527305828	
0.173333333333333	0.0115693786136428	-0.002318154070836	-0.203297556949585	0.0075602626814966	-0.00178042344742654	-0.2023808959343	-0.00152308212597146	0.010456707829203	-0.196612717343972	-0.000521539469430808	-0.00174596929583853	-0.196935051128559	
0.18	0.0115304902095224	-0.00228942913089804	-0.203720834342584	0.00749271511469311	-0.00177136706060184	-0.202521698307887	-0.00148709170650973	0.0103842116651774	-0.19663066233862	-0.000446567042404622	-0.0018505449544841	-0.197012173848957	
0.186666666666667	0.0117045594689768	-0.00231467810514928	-0.203631847266619	0.00776286479189551	-0.0018641059210099	-0.202324919352853	-0.00153690290333775	0.0103490463045926	-0.19666319606292	-0.000533748641706138	-0.00188901604988645	-0.197180343086769	
