inDegrees=no
num_controls=6
num_derivatives=0
num_input_controls=0
num_iterations=85
num_multipliers=0
num_parameters=0
num_slacks=0
num_states=12
objective=0.000085
objective_goal=0.000085
objective_myeffort=0.000000
solver_duration=8.920734
status=Solve_Succeeded
success=true
DataType=double
version=3
OpenSimVersion=4.5.2-2025-05-03-6a4c6ec41
endheader
time	/jointset/shoulder/elv_angle/value	/jointset/shoulder/extension_angle/value	/jointset/shoulder/rotation_angle/value	/jointset/humerus_ulna/elbow_flex/value	/jointset/ulna_radius_pj/radius_rot/value	/jointset/wrist/wrist_angle/value	/jointset/shoulder/elv_angle/speed	/jointset/shoulder/extension_angle/speed	/jointset/shoulder/rotation_angle/speed	/jointset/humerus_ulna/elbow_flex/speed	/jointset/ulna_radius_pj/radius_rot/speed	/jointset/wrist/wrist_angle/speed	/tau_elv_angle	/tau_extension_angle	/tau_rotation_angle	/tau_elbow_flex	/tau_wrist_angle	/tau_radius_rot
0	1.566877664276213	-0.3807309801433812	0.2134832000823667	0.1797968229666211	-0.1627852324075553	-0.2268230020999908	4.136011988120444	2.192074524240039	0.8444332687413999	1.212306542585353	-0.0009267312957352466	5.405474682380687e-06	-0.002034145612781694	-0.00066266807808875	-0.0003246445749610656	0.0007337155498286186	-0.0004144943725698948	0.0007323587093536078
0.00326666666666666	1.570768804972529	-0.3773217275668975	0.2140609800904757	0.1879919587535911	-0.1627862728855856	-0.2268230020999908	-1.158231898338657	0.2838541053573569	-0.3569434204978046	3.070791423581571	0.0003234207562097905	-2.702737341190343e-06	-0.001074325813210114	0.0001661076063697709	-0.0002705282292410372	1.609855329380955e-06	-3.905827916135249e-05	0.0004292122418497229
0.00653333333333332	1.563200816341709	-0.3763374099142782	0.2120249833778697	0.1950616904984314	-0.1627828991086851	-0.2268230020999908	-2.879781477473105	0.7074204892210483	-0.7558381929209034	0.5232836596488388	0.00177587376389146	5.405474682380687e-06	-0.000114506013638534	0.0009948832908282918	-0.0002164118835210088	-0.0007304958391698567	0.0003363778142471898	0.0001260657743458379
0.009799999999999979	1.554784670687082	-0.3723442413673915	0.2095109114465748	0.1913582383894581	-0.1627814856399059	-0.2268230020999908	-2.011912589728163	1.441598679713679	-0.8035436651391218	-2.083384741889368	-0.0002784655627535998	-2.702737341190343e-06	0.0005087833178041389	-4.326058432612639e-05	7.935486312008917e-05	-2.752776169916546e-05	2.216190411192542e-05	-0.0002078628393373491
0.01306666666666664	1.551761835468281	-0.3688513808239887	0.2066434910181485	0.1860713915500092	-0.1627805892252312	-0.2268230020999908	0.4222453199721491	0.401109466679875	-0.9721740074911135	-0.4461416855403194	0.001459310026478007	5.405474682380687e-06	0.001132072649246812	-0.001081404459480545	0.0003751216097611871	0.0006754403157715257	-0.000292054006023339	-0.000541791453020536
0.0163333333333333	1.556893881738993	-0.3696335030097543	0.2026124721702715	0.1881442448254652	-0.162784693894334	-0.2268230020999908	2.271321276991096	-0.5007013444605911	-1.619012812151189	0.9886090798201215	-0.002664016159638503	-2.702737341190343e-06	8.331546200317702e-05	0.0002373469676911116	-0.0002085393275349041	-0.0001307179220467605	5.342720166754634e-05	-4.929147303145635e-05
0.01959999999999996	1.563670917828601	-0.3696448077995697	0.1952609288152721	0.1877830114123047	-0.1627894462011327	-0.2268230020999908	1.429381943785202	0.8730384846085125	-3.005148195525313	-1.936398841836136	0.001062797151452094	5.405474682380687e-06	-0.0009654417252404577	0.001556098394862768	-0.0007922002648309953	-0.0009368761598650468	0.0003989084093584317	0.0004432085069576233
0.02286666666666662	1.565436294644897	-0.3638194471097382	0.1834150857921007	0.1757895928290616	-0.1627805005525925	-0.2268230020999908	-0.1497949881349595	2.256059763708635	-4.036393677650746	-4.704696878832976	0.002810656337063165	-2.702737341190343e-06	-0.0003381013394925662	0.0002081996359001133	-0.0001432076192944502	-0.0001107798951192226	3.56533181694351e-05	0.0001443166073551701
0.02613333333333328	1.563990718084516	-0.3577632182136609	0.1702684553092227	0.1616308407618637	-0.1627815592777668	-0.2268230020999908	-0.5365078786697011	1.014386365983481	-3.801548681059984	-3.262113219767599	-0.005062329612615426	5.405474682380687e-06	0.0002892390462553254	-0.001139699123062541	0.0005057850262420949	0.0007153163696266015	-0.0003276017730195615	-0.0001545752922472831
0.02939999999999994	1.562536193368886	-0.357467615533208	0.157957308403745	0.1541175013800669	-0.1627897047249695	-0.2268230020999908	-0.3597161035760297	-0.4115411671725848	-4.106938688541269	-2.06866080187186	-0.0002224289050947552	-2.702737341190343e-06	-4.837205374913565e-05	0.0002441119887941234	-0.0002683374535571306	-0.0001181717516176344	4.2536342964573e-05	1.418526315570018e-06
0.0326666666666666	1.561603341719669	-0.3576957759287687	0.1410122593512689	0.143341224108777	-0.1627849577801184	-0.2268230020999908	-0.2171162053555969	0.6937150949547877	-6.638631628201924	-5.25983029496749	0.002830971644779503	5.405474682380687e-06	-0.0003859831537535967	0.001627923100650788	-0.001042459933356356	-0.0009516598728618702	0.0004126744589487075	0.0001574123448784231
0.03593333333333326	1.56120954057037	-0.3520286285136177	0.114147851992671	0.1194634146887198	-0.1627827279130021	-0.2268230020999908	-0.01066912171547632	2.592314534497474	-9.582438318497648	-8.763406613117681	-0.0008611980940297645	-2.702737341190343e-06	-0.0001767186028500789	0.0007671570639814062	-0.0005960776434884969	-0.0004023807972808419	0.0001654248861025524	6.480680493998183e-05
0.03919999999999992	1.561620643918124	-0.3419591837182344	0.07988696811970582	0.08997972411714765	-0.1627866345555996	-0.2268230020999908	0.2756824663089707	3.388999205301116	-11.16708663699822	-8.692002428548046	-0.0009260751187738765	5.405474682380687e-06	3.254594805343899e-05	-9.360897268797543e-05	-0.0001496953536206377	0.0001468982783001866	-8.182468674360265e-05	-2.779873499845943e-05
0.04246666666666658	1.562943121296138	-0.3302537890796262	0.04183363984073925	0.06361686210089004	-0.1627819994869173	-0.2268230020999908	0.5060008673306631	3.888478738300175	-12.14369675003555	-7.710442311770129	0.002325521166738568	-2.702737341190343e-06	-7.551132400641099e-05	0.0002711325600871357	-0.0002695628305669134	-0.0001104237333894397	3.649611045587768e-05	3.382057483584801e-05
0.04573333333333324	1.564743604519072	-0.3158298452842441	0.0004643443400526792	0.03789364344186795	-0.1627808383778597	-0.2268230020999908	0.5683391060553816	5.053417056387275	-13.19727065029619	-8.300384046567112	-0.003052989174744519	5.405474682380687e-06	-0.000183568596066261	0.0006358740928622468	-0.000389430307513189	-0.0003677457450790659	0.000154816907655358	9.543988467015544e-05
0.0489999999999999	1.566687260523862	-0.2967664665214297	-0.04427140438881057	0.009300878734223608	-0.1627871100930138	-0.2268230020999908	0.6599246501326205	6.594181602114448	-14.17050352675583	-9.0388206045522	-0.0005173351158432672	-2.702737341190343e-06	-3.720408659887957e-05	0.0004594513127761239	-0.0003145969421424096	-0.0002278790469017127	9.184339815564109e-05	3.566157967838165e-05
0.05226666666666656	1.569305144754539	-0.272903729299476	-0.09197607507603815	-0.0200717293979414	-0.1627824575586984	-0.2268230020999908	0.9811318974143318	7.991799786472646	-15.01497797174374	-8.777839204436907	0.003635326827057083	5.405474682380687e-06	0.0001091604228685019	0.0002830285326900011	-0.0002397635767716301	-8.801234872435939e-05	2.886988865592418e-05	-2.411672531339214e-05
0.05553333333333321	1.573069020955955	-0.244985791883384	-0.1421312699146674	-0.04753433644571196	-0.1627850386262055	-0.2268230020999908	1.275547283327967	9.052138579745577	-15.61342377689236	-7.966930186531582	-0.00308479982372995	-2.702737341190343e-06	9.142667177262462e-05	0.0001195176509563614	-0.0001300582974993082	-4.635903622591849e-06	-7.775195872199037e-06	-1.069061949366573e-05
0.05879999999999988	1.577326852847465	-0.2140811095835476	-0.1934685558216399	-0.07167107177985933	-0.1627886905377632	-0.2268230020999908	1.28355374849203	9.820419103050828	-15.73870719726	-6.741591216504347	0.002979708020640505	5.405474682380687e-06	7.369292067674738e-05	-4.39932307772782e-05	-2.035301822698631e-05	7.874054147917569e-05	-4.442028040032225e-05	2.73548632606068e-06
0.06206666666666654	1.581071310348359	-0.1812302327471959	-0.2441299850181333	-0.09155583556102717	-0.1627827464733191	-0.2268230020999908	0.9471074978449245	10.21833774626358	-15.10598450041464	-5.490103308780485	0.0002824079697794849	-2.702737341190343e-06	2.348771625954619e-05	-0.0002079207726654942	0.0001957250025811997	9.313255393926336e-05	-4.335534891011605e-05	2.412482147841547e-05
0.0653333333333332	1.583110445305878	-0.1478049322378454	-0.2910339235298487	-0.1079144291710812	-0.1627893092389993	-0.2268230020999908	0.2394787219354659	10.17210706611126	-13.43820269637551	-4.582711519904043	-0.004677534912564571	5.405474682380687e-06	-2.671748815765499e-05	-0.0003718483145537103	0.0004118030233893857	0.000107524566399351	-4.229041741990984e-05	4.551415663077026e-05
0.06859999999999987	1.582321509353352	-0.1150557465435348	-0.3307989484784563	-0.1207654236994425	-0.1627863896602882	-0.2268230020999908	-0.749371427995829	9.828657357344481	-10.75383821697154	-3.057489239967061	0.003911123459092797	-2.702737341190343e-06	5.782999373391894e-05	-0.0006838791940676826	0.0006378324476344601	0.000288496177508821	-0.0001201933388317776	3.997613202051043e-06
0.07186666666666652	1.578038996773479	-0.08391611938052694	-0.3602869007201663	-0.1264020257232451	-0.1627804421020738	-0.2268230020999908	-1.899445743787751	9.186663067354457	-7.146117365621905	-0.1657365171130083	-0.002823669910599038	5.405474682380687e-06	0.0001423774756254929	-0.0009959100735816549	0.0008638618718795343	0.0004694677886182909	-0.0001980962602436453	-3.751893022666817e-05
0.07513333333333318	1.570098005387621	-0.05470204011012432	-0.3777681596760697	-0.1223284031839234	-0.1627889272981654	-0.2268230020999908	-2.904785314516162	8.881011820519083	-3.777624947491966	2.31441103735195	-0.001886299717612529	-2.702737341190343e-06	7.319143437542223e-05	-0.0003496705175378726	0.0005068520354332788	0.0001164265591790122	-4.083796507731054e-05	-3.443030972250127e-05
0.07839999999999983	1.559437388681154	-0.02470768330063966	-0.3864107976658436	-0.113537690237605	-0.1627895969441	-0.2268230020999908	-3.56452247069124	9.664384009649583	-1.734716774113977	2.722278017782957	0.001961360797786383	5.405474682380687e-06	4.005393125351604e-06	0.0002965690385059094	0.0001498421989870234	-0.0002366146702602665	0.0001164203300890242	-3.134168921833436e-05
0.0816666666666665	1.547220627883234	0.008122058504724736	-0.389755503511238	-0.1041986506011111	-0.1627860348423231	-0.2268230020999908	-3.807124190697905	10.11934411111812	-0.3002420181409953	3.399150899053522	0.000784673359193596	-2.702737341190343e-06	0.0002295746183124706	-0.000448876812897837	0.0004031476199999214	0.0002803377504961142	-0.0001231367930382712	-9.164260515788429e-05
0.08493333333333317	1.535269795639198	0.03934008805955682	-0.3882886195788531	-0.08869272731976592	-0.162780778062102	-0.2268230020999908	-3.401709070354014	8.677621407282862	1.211154518403915	6.49792106565106	0.00299891902895354	5.405474682380687e-06	0.0004551438434995896	-0.001194322664301583	0.0006564530410128194	0.0007972901712524948	-0.0003626939161655667	-0.0001519435210974343
0.08819999999999982	1.525310819194054	0.06497317744280452	-0.3816857457548031	-0.06275696169559829	-0.1627832616495218	-0.2268230020999908	-2.750321773488758	7.44974039002796	2.879446876136666	8.758581557609956	-0.002888581546630195	-2.702737341190343e-06	0.0002383428783469808	-0.0001651871753583848	0.0004039497370509194	8.383043451168835e-05	-2.628812574010554e-05	-0.0001208191249665998
0.09146666666666649	1.516943664319876	0.09084479815051243	-0.3691624661732953	-0.03553723983474639	-0.1627889949069765	-0.2268230020999908	-2.427124435068578	8.823660993687064	4.835892737255601	7.28401672076388	0.001009325129961336	5.405474682380687e-06	2.154191319437212e-05	0.0008639483135848137	0.0001514464330890194	-0.0006296293022291182	0.0003101176646853557	-8.969472883576543e-05
0.09473333333333316	1.508262842167341	0.1226095071475791	-0.349871801083678	-0.01471638503150324	-0.1627835264858442	-0.2268230020999908	-3.088103929202216	9.960148258646218	6.888303545484629	5.927182338391839	0.001469711571420586	-2.702737341190343e-06	-0.0004742525971797893	-0.0004859313707195235	0.0004414780257170088	4.758183652959391e-05	-1.933143295122287e-05	0.000185580349177697
0.0979999999999998	1.495458515279324	0.1515798179006443	-0.3247234609873628	0.006216766082924564	-0.1627850701027898	-0.2268230020999908	-4.951719171078627	7.112804925930991	8.422224374009408	7.352769564346326	-0.003283759407475279	5.405474682380687e-06	-0.0009700471075539507	-0.001835811055023861	0.0007315096183449982	0.000724792975288306	-0.0003487805305878014	0.0004608554271911594
0.1012666666666665	1.477711534391278	0.1676495619127207	-0.2962054312019384	0.03173119211120738	-0.1627858350181467	-0.2268230020999908	-5.401573306305761	3.451895631811168	8.961372459932072	7.987135164815197	0.001676428198820306	-2.702737341190343e-06	0.0001421995475790654	-0.0003484325509611697	0.0002098164655917903	0.0001981991262701662	-9.069242850094792e-05	-5.098770910434649e-05
0.1045333333333331	1.463514649044728	0.1788759369574201	-0.2666751140757532	0.05656238927710756	-0.1627815590076933	-0.2268230020999908	-2.778191288530856	4.14747698672059	9.041992133658974	6.934466179214103	-0.0001974782991640799	5.405474682380687e-06	0.001254446202712081	0.001138945953101521	-0.0003118766871614176	-0.0003283947227479735	0.0001673956735859056	-0.0005628308453998524
0.1077999999999998	1.458520786746504	0.197578536331197	-0.2360209627494038	0.07971869288848214	-0.1627858419770058	-0.2268230020999908	-0.8319591067118641	6.796753654739939	9.800629515738105	7.485552308958628	-0.001554701919228614	-2.702737341190343e-06	6.906870372950389e-05	1.285418182229297e-05	0.0001316205859981585	2.213128409004685e-05	-1.066283527116316e-05	-4.665819688475493e-05
0.1110666666666665	1.454468316158187	0.2199733035308225	-0.2021558117689339	0.1070535707062008	-0.1627860320937425	-0.2268230020999908	-2.201829017159882	6.407987900505507	11.00791028924298	9.492776917792126	0.002308349808493899	5.405474682380687e-06	-0.001116308795253074	-0.001113237589456935	0.0005751178591577346	0.0003726572909280672	-0.0001887213441282319	0.0004695144516303426
0.1143333333333331	1.444359321667795	0.2365661302475894	-0.1655329658110438	0.1388864296275545	-0.1627830924383716	-0.2268230020999908	-3.59794908612067	3.928765172046527	11.19657547076683	9.610496123150131	-0.0003909875847285016	-2.702737341190343e-06	-0.0003422520823231086	-0.0003216661981710207	0.0001065854317755529	8.497237809634937e-05	-4.910606985219337e-05	0.0001564819062655725
0.1175999999999998	1.433505809815667	0.2468033825284652	-0.1304269288927547	0.1673187602261889	-0.1627878184009172	-0.2268230020999908	-2.657655973324895	2.516819878531376	10.07925169356888	7.410820801841524	-0.002384885650521044	5.405474682380687e-06	0.0004318046306068567	0.0004699051931148939	-0.0003619469956066288	-0.0002027125347353685	9.050920442384514e-05	-0.0001565506390991976
0.1208666666666664	1.427644373805601	0.2544250781981943	-0.0998505083110577	0.1878736748340643	-0.1627857028003499	-0.2268230020999908	-1.002514550881646	2.165685758697712	8.685889283135095	5.411792155520064	0.002333418192982439	-2.702737341190343e-06	0.0003827238060050949	0.0002814755923797302	-0.0002897012068986183	-7.647054425938687e-05	3.026428852298304e-05	-0.0001420944529727408
0.1241333333333331	1.426488678032018	0.2610581169696038	-0.07338588018859431	0.2042305485321807	-0.1627813720583816	-0.2268230020999908	0.2234094775824965	1.911519736702998	7.561827738936068	4.840591673417682	-0.001028676629494437	5.405474682380687e-06	0.0003336429814033332	9.30459916445665e-05	-0.0002174554181906078	4.977144621659475e-05	-2.998062737787907e-05	-0.000127638266846284
0.1273999999999997	1.42843070307897	0.267178616430688	-0.05045100250449967	0.2201234594284092	-0.1627868357090897	-0.2268230020999908	0.8170511564679858	1.87601656918223	6.418556848607222	4.818793734457051	-0.001643385392231075	-2.702737341190343e-06	6.699093627711433e-05	0.0002107178477622936	-0.000279200033461758	-6.233321808430609e-05	1.563225189069841e-05	-8.475442896680808e-06
0.1306666666666664	1.430856321542264	0.2735779979090405	-0.03185230687545644	0.2352496753438344	-0.1627877117119872	-0.2268230020999908	0.5194870794247577	2.082263828907987	4.907022399108674	4.371186583129965	0.001780087336129204	5.405474682380687e-06	-0.0001996611088491045	0.0003283897038800207	-0.0003409446487329082	-0.0001744378823852069	6.124513115927588e-05	0.0001106873810529223
0.1339333333333331	1.431849054494587	0.2800628406556481	-0.01831553672466649	0.2480817874211714	-0.1627835170595624	-0.2268230020999908	0.2390659418392981	1.688801360646317	3.500345930874716	3.449405945648008	0.0006407604129514773	-2.702737341190343e-06	3.274980147750622e-05	3.744816204499915e-05	-0.0001268421727683024	-7.494644530383298e-06	-4.749962660123048e-06	-4.449351507947369e-06
0.1371999999999997	1.433403166958583	0.2833097550505873	-0.008202320974343588	0.257551883734069	-0.1627844878150278	-0.2268230020999908	0.8631888212654598	0.09985871564155041	2.810968684537	2.312809584493595	-0.001382407290490991	5.405474682380687e-06	0.0002651607118041169	-0.0002534933797900224	8.726030319630341e-05	0.0001594485933244403	-7.074505647952197e-05	-0.0001195860840688171
0.1404666666666664	1.437507461087901	0.2813219185101728	0.0004235973720912768	0.2635720147406647	-0.1627877589747793	-0.2268230020999908	1.514122952337951	-0.9647748623256837	2.449820207462804	1.483058590034284	-0.0004893014689215801	-2.702737341190343e-06	8.483617939073504e-05	0.0001346527814401522	-0.0001008165373547721	-6.120252434144644e-05	2.307428896461166e-05	-2.903515633532307e-05
0.143733333333333	1.442410030650792	0.279307119953381	0.007669985089739334	0.267960347902826	-0.1627868284428468	-0.2268230020999908	1.35192888263638	0.08335135867584532	1.966358095483853	1.313749679737874	0.001190057005889754	5.405474682380687e-06	-9.548835302264683e-05	0.0005227989426703268	-0.0002888933779058476	-0.0002818536420073332	0.0001168936344087453	6.151577139817095e-05
0.1469999999999997	1.44617213611157	0.2818828707896962	0.01320659024189027	0.2718407897291377	-0.1627850919559697	-0.2268230020999908	1.023568454107129	1.159879590231806	1.427754143001799	0.8745218165117504	6.983744791952363e-05	-2.702737341190343e-06	-4.020064263717557e-05	0.0002167977009748735	-0.0001151092643864544	-0.0001382836006623042	5.690392651643936e-05	2.670980641581224e-05
0.1502666666666664	1.449568838641237	0.2847044387971647	0.01702642484018683	0.2724488302409532	-0.1627850868085972	-0.2268230020999908	1.128212802363789	0.2338516675452511	0.9152740829199525	-0.689761329137342	0.0001300532275626421	5.405474682380687e-06	1.508706774829569e-05	-8.920354072057974e-05	5.867484913293878e-05	5.286440682724785e-06	-3.085781375866563e-06	-8.09615856654647e-06
0.153533333333333	1.453644791214256	0.2826743739171791	0.01948235792623195	0.267759520743785	-0.162781750112071	-0.2268230020999908	1.329792952946078	-1.369778870225883	0.674278514630036	-1.866518017791318	0.001258758188895021	-2.702737341190343e-06	-1.532247293708934e-05	-0.0002400684890262166	0.0001358486980638904	0.0001281244805578534	-6.141937047680402e-05	-7.067928581663738e-06
0.1567999999999997	1.458011979909764	0.2764540853074516	0.02199305576224913	0.2623104587801227	-0.1627811361399468	-0.2268230020999908	1.306520632458894	-2.331591432296694	0.9488035216783601	-1.154915900460236	-0.001536920896095749	5.405474682380687e-06	-4.573201362247437e-05	-0.0003909334373318535	0.0002130225469948421	0.0002509625204329821	-0.0001197529595777415	-6.039698596781007e-06
0.1600666666666663	1.462053206483605	0.268450459935332	0.02567634244582567	0.2603650981882615	-0.1627888558034546	-0.2268230020999908	1.167964171011056	-2.369213688961778	1.218893789583521	-0.3072181664193825	-0.00215563105327936	-2.702737341190343e-06	-3.298209783918335e-05	0.0001413286685979901	-4.12943962231255e-05	-8.139367251291839e-05	3.167963589883233e-05	1.773757457905645e-05
0.163333333333333	1.465644406914345	0.2622777972358242	0.02938563755346629	0.2585321332233468	-0.1627884656148665	-0.2268230020999908	1.030994422397101	-1.210593877636385	0.9647270466155542	-1.086102251309408	0.003428294672747184	5.405474682380687e-06	-2.023218205589233e-05	0.0006735907745278336	-0.0002956113394410931	-0.0004137498654588188	0.0001831122313754061	4.15148477548939e-05
0.1665999999999997	1.468882373374399	0.2601445710026388	0.03180207591870935	0.2528479185019137	-0.1627813477673427	-0.2268230020999908	0.9783147375687418	-0.4138534796289217	0.5466277883903105	-2.248948625285815	0.0006792058367627692	-2.702737341190343e-06	2.801553156722748e-06	0.0001120112699936044	-5.458059512834132e-05	-7.219306157250544e-05	2.829047142373169e-05	3.125654406176459e-06
0.1698666666666663	1.472211683871351	0.2574938033675236	0.03316537056534908	0.2447868620301232	-0.1627856638568328	-0.2268230020999908	1.086919342945666	-1.52745596045055	0.3199451780829085	-2.54131148622211	-0.003572074927570918	5.405474682380687e-06	2.583528836933783e-05	-0.0004495682345406248	0.0001864501491844105	0.0002693637423138079	-0.0001265312885279428	-3.526353894254098e-05
0.173133333333333	1.476060782208447	0.2499040472606145	0.03419957136125731	0.2366804169964835	-0.1627866360117428	-0.2268230020999908	1.264500664328056	-2.881068293668811	0.377052458936626	-2.433477925138038	0.001793031198664153	-2.702737341190343e-06	2.804189028999953e-05	-0.0001554644700394019	0.0001159286756435672	8.564290462080537e-05	-4.093832837887847e-05	-2.468890366736513e-05
0.1763999999999996	1.480439305577429	0.2402274898162774	0.03604569467529635	0.2288119622328937	-0.16278168385239	-0.2268230020999908	1.41105711756884	-2.805089432345316	0.8170405973466626	-2.395603157620194	5.505625382293684e-05	5.405474682380687e-06	3.024849221066123e-05	0.0001386392944618209	4.540720210272405e-05	-9.80779330721972e-05	4.465463177018581e-05	-1.411426839218929e-05
0.1796666666666663	1.485182520581573	0.2324313786539515	0.03938862830856205	0.2210635866707785	-0.162787540711114	-0.2268230020999908	1.47042980860906	-1.946314533844772	1.11915611936381	-2.328850233183704	-0.00236056497600766	-2.702737341190343e-06	2.290653432992893e-05	0.0002202708058594944	-9.448889809842031e-05	-0.0001147737684759633	4.684594721373176e-05	4.408310064811936e-07
0.182933333333333	1.489898968228124	0.2276535069320198	0.04263559867125223	0.2137238808046355	-0.162788741432322	-0.2268230020999908	1.394668939449717	-0.9571877341448038	0.7582875745453316	-2.145397221310653	0.002905752692278587	5.405474682380687e-06	1.556457644919663e-05	0.0003019023172571679	-0.0002343849982995647	-0.0001314696038797293	4.903726265727769e-05	1.499593040515167e-05
0.1861999999999996	1.494187648587013	0.2254538584706078	0.04416431407894081	0.2070609835987488	-0.1627813322338197	-0.2268230020999908	1.219233756319178	-0.6318712767215654	0.2335189932501617	-1.946810298489024	0.001218557066566919	-2.702737341190343e-06	-5.91154085590592e-05	-5.779802298958787e-05	-1.105460853897735e-05	4.765554552960481e-05	-2.976086196011698e-05	2.064923958391629e-05
0.1894666666666663	1.497787404946208	0.2219420228987598	0.04452619737266281	0.2009205532153634	-0.1627834714964052	-0.2268230020999908	0.9728787355549738	-1.760567597677105	0.04390056599436957	-1.825519574881227	-0.002940243892133763	5.405474682380687e-06	-0.0001337953935673151	-0.0004174983632363435	0.00021227578122161	0.0002267806949389389	-0.0001085589865775116	2.63025487626809e-05
0.1927333333333329	1.500597355229593	0.2140884359817989	0.04469137418308233	0.1948692177444982	-0.1627875339677366	-0.2268230020999908	0.7766317460193282	-2.763660150801591	0.07515157504215537	-1.94781684432886	0.0001930339340942138	-2.702737341190343e-06	-5.368235258727559e-05	1.685069881404102e-05	4.084088321002208e-05	-2.81673082297299e-05	9.165795631435353e-06	2.026659598572231e-05
0.1959999999999996	1.503051733032946	0.2057421696246389	0.04513428774269881	0.1877476937770364	-0.1627839088944362	-0.2268230020999908	0.7551812988003963	-2.062208071268365	0.2139434736659826	-2.480737021777145	0.001766416086450792	5.405474682380687e-06	2.643068839276386e-05	0.0004511997608644256	-0.0001305940148015658	-0.0002831153113983987	0.0001268905778403824	1.423064320876373e-05
0.1992666666666663	1.505532886470345	0.2009212779076211	0.04584694671230086	0.1787674661174129	-0.1627835455072016	-0.2268230020999908	0.736826384773022	-1.079844741634784	0.1300243652784827	-2.917484007879342	-0.001031763013231049	-2.702737341190343e-06	-1.432787131731377e-05	0.0001680440929200654	-0.0001070700005657696	-8.482352779380504e-05	3.127843714545653e-05	1.738782697686011e-05
0.2025333333333329	1.507688835196546	0.1974426724697291	0.04538040093188057	0.1693393315036294	-0.1627873035616497	-0.2268230020999908	0.5560763735771314	-1.240400145272909	-0.5080186181844152	-2.754965769222096	-0.0007569155560713481	5.405474682380687e-06	-5.50864310273914e-05	-0.0001151115750242949	-8.35459863299734e-05	0.0001134682558107887	-6.433370354946932e-05	2.054501074495649e-05
0.2057999999999996	1.509028090575423	0.1926877010996094	0.04199198774632998	0.1609895104140753	-0.1627863069049628	-0.2268230020999908	0.2471395239609355	-1.517072688713842	-1.636290278950165	-2.384733569079894	0.0008424851555011258	-2.702737341190343e-06	-6.440687203806415e-05	0.0001584372748590258	-0.0002625117470296756	-3.051261231224396e-05	-2.481376092360777e-06	4.78852396685159e-05
0.2090666666666662	1.509194135768164	0.1885355272018976	0.03423413905699608	0.1535789875336175	-0.1627852268973316	-0.2268230020999908	-0.1622155771185937	-0.8713404682884501	-3.183183212337465	-2.179885233040709	-0.0007058843656648031	5.405474682380687e-06	-7.372731304873691e-05	0.0004319861247423465	-0.0004414775077293779	-0.0001744934804352766	5.937095136474776e-05	7.522546859207528e-05
0.2123333333333329	1.508046538201848	0.1871705389318957	0.02179455902078425	0.1469096225031635	-0.1627858799540071	-0.2268230020999908	-0.5050117320761695	-0.07216218076310524	-4.18445013548653	-1.836272977002865	0.0003475613397327653	-2.702737341190343e-06	-5.999946673904657e-05	8.144670708215196e-05	-7.708447290653764e-05	-2.244173966477622e-05	1.015233457930977e-06	3.14962668061432e-05
0.2155999999999996	1.506125897630458	0.1873598033937828	0.008518847110881276	0.1420205639000637	-0.1627826849803129	-0.2268230020999908	-0.6355072128781852	0.08024283694970687	-3.695100686025921	-1.089901706089129	0.001650052595374286	5.405474682380687e-06	-4.627162042935624e-05	-0.0002690927105780426	0.0002873085619163026	0.0001296100011057241	-5.73404844488858e-05	-1.223293497978889e-05
0.2188666666666662	1.504001572064113	0.187342690007898	-0.001953525191619503	0.1396761014024661	-0.162782281799525	-0.2268230020999908	-0.6597480895973225	-0.08585412319658837	-2.841385228755602	-0.4413522048497494	-0.001049096228377001	-2.702737341190343e-06	-2.186698546075987e-05	-0.0001106077985479842	0.0001241251631258118	5.384585871999334e-05	-2.657687520903297e-05	-5.203857873617183e-06
0.2221333333333329	1.501850511067627	0.186830682928958	-0.01086042181689151	0.1385107206006348	-0.1627872255505586	-0.2268230020999908	-0.6518758435776758	-0.2227533016554986	-2.736646189763408	-0.368014953579189	-0.001623579132060017	5.405474682380687e-06	2.537649507836507e-06	4.787711348207424e-05	-3.905823566467899e-05	-2.191828366573746e-05	4.186734030819867e-06	1.825219232554524e-06
0.2253999999999995	1.499737168514025	0.1861806555565459	-0.01988183971699784	0.137402834169582	-0.1627875358595206	-0.2268230020999908	-0.6560763410464533	-0.09057767409059762	-2.677690539893091	-0.1738242882526349	0.001018383275711801	-2.702737341190343e-06	-6.726648820829942e-06	-8.600049817989388e-06	5.378382069528075e-05	9.941627421205744e-06	-8.09878198545854e-06	-4.065350184043048e-06
0.2286666666666662	1.49747222824765	0.1867919225730067	-0.02764266171085646	0.1382665979282941	-0.162783284823571	-0.2268230020999908	-0.7446907697656777	0.5494677527564528	-1.964852777775013	0.8391178156645572	0.001169081017802555	5.405474682380687e-06	-1.599094714949639e-05	-6.507721311805303e-05	0.0001466258770552405	4.180153850814895e-05	-2.038429800173694e-05	-9.955919600640618e-06
0.2319333333333329	1.494845823653159	0.1894907707327068	-0.032843108160649	0.1427238115327244	-0.1627829558807344	-0.2268230020999908	-0.8509739756387921	0.9350095602966521	-1.363950270173162	1.706146345573867	-0.0007223306890088438	-2.702737341190343e-06	-2.477554359506408e-05	-6.559476311632958e-05	5.857919955545342e-05	3.855797631542713e-05	-2.191152760068832e-05	2.476534291433979e-06
0.2351999999999995	1.4919931403148	0.1918038441734244	-0.03750019759007901	0.1482136254884132	-0.1627864010532711	-0.2268230020999908	-0.8832287762153065	0.3132791492977053	-1.632185214287736	1.471322112353465	-0.00114160186386286	5.405474682380687e-06	-3.356014004063177e-05	-6.611231311460612e-05	-2.946747794433364e-05	3.531441412270533e-05	-2.343875719963971e-05	1.490898818350858e-05
0.2384666666666662	1.48898294441467	0.1914970514994883	-0.04333707293008487	0.1518736962769532	-0.162787537159834	-0.2268230020999908	-1.006117799566014	-0.3456222625318094	-1.74583505515727	0.8119761782301818	0.0003156370073331004	-2.702737341190343e-06	-0.0001313354824633066	-1.455300521834968e-05	0.0001217305100553747	-4.578730515774749e-05	1.947462791595889e-05	4.674046947374004e-05
0.2417333333333328	1.485116889996383	0.1905616410808315	-0.04762855101745696	0.15379580219717	-0.1627851907689677	-0.2268230020999908	-1.407223787332352	-0.07158885767416981	-0.6860236310425677	0.4072619888902163	0.0009905394193077566	5.405474682380687e-06	-0.0002291108248859815	3.700630267790676e-05	0.0002729284980550831	-0.0001268890244382003	6.23880130315575e-05	7.85719507639715e-05
0.2449999999999995	1.480186435907754	0.1910430012756897	-0.04788125312545365	0.1547591227797305	-0.1627836706999377	-0.2268230020999908	-1.441023727489509	0.2142994672240374	0.317187391098762	0.2080994076840604	4.208566852662916e-05	-2.702737341190343e-06	0.00013560710253933	-2.748433185926215e-05	7.901689027971749e-05	1.856932431047463e-05	-7.731637992812805e-06	-6.426275227908175e-05
0.2482666666666662	1.476815467567795	0.1909686661363213	-0.04695518173125782	0.1553224637880823	-0.1627842496014792	-0.2268230020999908	-0.452436594269855	-0.4118104908741673	0.03567443152428478	0.1623765352930527	-0.0002945446040407952	5.405474682380687e-06	0.0005003250299646415	-9.197496639643106e-05	-0.0001148947174956481	0.0001640276730591496	-7.785128901718311e-05	-0.000207097455322135
0.2515333333333328	1.477130374736736	0.1883663111003378	-0.04795934327719179	0.1558357872119076	-0.1627846632995259	-0.2268230020999908	0.4441068282944129	-1.022781168003196	-0.529400758591613	0.1341822718077118	2.057474556944651e-05	-2.702737341190343e-06	9.366283372003488e-05	2.854073890567142e-05	-3.120733714368152e-05	4.344672479702198e-06	-6.174679072192781e-06	-3.919747636135927e-05
0.2547999999999995	1.478402915699182	0.185323250477969	-0.04962296584049365	0.1560833451416498	-0.1627842503240305	-0.2268230020999908	0.133869809917464	-0.6816302376406818	-0.3680772117621801	-0.0003370325129501976	0.0002115820543182039	5.405474682380687e-06	-0.0003129993625245717	0.0001490564442077739	5.248004320828507e-05	-0.0001553383280997452	6.550193087279754e-05	0.0001287025025994165
0.2580666666666662	1.477756691104217	0.1837956176493754	-0.05000239387013648	0.1555973836442619	-0.1627842535625248	-0.2268230020999908	-0.4048390315822631	-0.4511217454373527	0.1220208803876082	-0.3552245182711137	-0.0002016445674606172	-2.702737341190343e-06	-0.0001024484577641395	-4.954906783269473e-05	0.0001315329757119003	-2.141998538773984e-05	8.711855074000211e-06	3.434339994242903e-05
0.2613333333333328	1.476572533491161	0.1810858067660431	-0.0489156186683705	0.1533833888133743	-0.1627854898563132	-0.2268230020999908	-0.1954769358528784	-1.405412720133687	0.529598236039132	-1.058316624451554	-0.0005433497584478299	5.405474682380687e-06	0.0001081024469962928	-0.0002481545798731634	0.0002105859082155155	0.0001124983573242655	-4.807822072479713e-05	-6.00157027145584e-05
0.2645999999999994	1.47683884113749	0.1747593691570968	-0.04687856288633984	0.1490512392184115	-0.1627859548787429	-0.2268230020999908	0.3492850682293515	-2.2274851755685	0.6292311490728542	-1.426116224565976	0.0001394001574472779	-2.702737341190343e-06	0.0001787183276151016	1.149101663132544e-05	-2.933030876988916e-05	3.145441337388648e-05	-1.753393019666344e-05	-7.564608949053988e-05
0.2678666666666661	1.478794178483137	0.1681037211361938	-0.04538184630648558	0.1451630665791468	-0.1627853581562925	-0.2268230020999908	0.8386228800565648	-1.606970115209127	0.1987783163393043	-0.786493998513868	0.0001066981272802186	5.405474682380687e-06	0.0002493342082339105	0.0002711366131358142	-0.0002692465257552939	-4.958953057649254e-05	1.301036033147024e-05	-9.127647626652139e-05
0.2711333333333328	1.482107977541272	0.1642880744064739	-0.04549796298043969	0.1436645191979147	-0.1627849651451757	-0.2268230020999908	1.128140187836168	-0.9590893132910394	-0.1562128909489919	-0.3715395215614284	0.0001030839622830199	-2.702737341190343e-06	2.047159868368701e-05	5.241273539716849e-05	3.263513603227015e-07	-3.517724343881619e-05	1.264568443083325e-05	-9.133626405489161e-06
0.2743999999999994	1.485759016854695	0.1603353362753708	-0.04565987638565248	0.1411640455653822	-0.1627848861425546	-0.2268230020999908	1.045096505743864	-1.690903626260087	0.1707395012829775	-1.399918234003865	-8.555197217391888e-05	5.405474682380687e-06	-0.0002083910108665364	-0.0001663111423414772	0.0002698992284759393	-2.076495630113985e-05	1.228100853019626e-05	7.300922345554307e-05
0.2776666666666661	1.488711580639323	0.153190079238307	-0.04425988097798687	0.1346890686863334	-0.162784532466382	-0.2268230020999908	0.7635674540251824	-2.470646782085688	0.6099768575503723	-2.274198523512137	0.000252947963520308	-2.702737341190343e-06	-0.0001050136723307308	-4.151345073126941e-05	6.96800267143967e-05	7.707026678191332e-07	-4.813544375575087e-06	3.797581931128382e-05
0.2809333333333328	1.490754006952973	0.1455860094461406	-0.04217399566927457	0.1282016265788604	-0.162783554600073	-0.2268230020999908	0.4878694826962241	-1.971809394690217	0.590672093760549	-1.407550006508452	0.0002966052542740125	5.405474682380687e-06	-1.636333794925112e-06	8.328424087893843e-05	-0.0001305391750471459	2.230636163677811e-05	-2.190809728134643e-05	2.942415167024564e-06
0.2841999999999994	1.492003577768377	0.1403775961558852	-0.04060667889149908	0.1254902286369174	-0.1627849057208503	-0.2268230020999908	0.3009128214167838	-1.40809571989327	0.3815698510451587	-0.5415587194809993	-0.0008329403406317638	-2.702737341190343e-06	-3.845750124212185e-05	3.202614296938481e-05	-2.484227430212458e-05	-1.552884233587685e-05	7.478766540655112e-07	1.621850392593727e-05
0.2874666666666661	1.492875065178151	0.1351380571552476	-0.03959835904748422	0.122774857702892	-0.1627870960497533	-0.2268230020999908	0.2563898465959988	-1.99086595206702	0.2484290730907731	-1.409982450640543	-0.0002171956389695734	5.405474682380687e-06	-7.527866868931859e-05	-1.923195494016881e-05	8.085462644289671e-05	-5.336404630853181e-05	2.340385058947745e-05	2.949459268484998e-05
0.2907333333333327	1.493787868888303	0.1274772474509375	-0.03900880988465925	0.1163266823155264	-0.1627850247815304	-0.2268230020999908	0.3174749867193186	-2.476902693800865	0.09210412585309007	-2.236081278547504	0.001066039564685748	-2.702737341190343e-06	4.41245691065052e-05	7.589756398028844e-05	-5.672794985221464e-05	-2.473414398711915e-05	5.55483621717976e-06	-1.615844099718591e-05
0.2939999999999994	1.495047270495103	0.1204094432199853	-0.03912999184344396	0.1101375452018153	-0.1627828705505072	-0.2268230020999908	0.4685926404617415	-1.627801376541821	-0.186712429935555	-1.251387589219468	-0.0001664020877175959	5.405474682380687e-06	0.000163527806902329	0.0001710270829007457	-0.000194310526147326	3.895758334293503e-06	-1.229417815511793e-05	-6.181147467922179e-05
0.2972666666666661	1.496710366564358	0.1168312121260369	-0.0402616372559639	0.1082332256174958	-0.1627860397086721	-0.2268230020999908	0.4886167182005717	-0.7848505926954954	-0.49351759595395	-0.1860919152601052	-0.001195655687737118	-2.702737341190343e-06	-4.466260836315524e-05	5.208216723283145e-05	-6.030640338526942e-05	-1.483845068887924e-05	-1.230219919748285e-06	2.034927931141933e-05
0.3005333333333327	1.497840949920249	0.1138320175244848	-0.04227189465607473	0.1071474902634609	-0.162786904312474	-0.2268230020999908	0.1425644486055897	-1.273289238339981	-0.7246381366238626	-0.7502135706778885	0.001244549563101989	5.405474682380687e-06	-0.0002528530236286395	-6.686274843508277e-05	7.369771937678715e-05	-3.357265971205198e-05	9.833738315621364e-06	0.0001025100333020605
0.3037999999999993	1.497605400953845	0.1082189852781938	-0.04533251792899073	0.1030309246938117	-0.1627829365283598	-0.2268230020999908	-0.2316615318491752	-2.040048970556405	-1.270071639074199	-1.601590616710974	0.0008198729895939122	-2.702737341190343e-06	-8.873394340852707e-05	5.916532814034889e-05	-0.0001365555007507378	-1.838915772139298e-05	-3.093292233399236e-06	4.337063630306502e-05
0.307066666666666	1.496687522833928	0.1013086836038907	-0.05135930680758954	0.09778490648860538	-0.1627839313847208	-0.2268230020999908	-0.2751880943614943	-2.067535826918796	-2.540657895205185	-1.441715184284268	-0.001793801748169184	5.405474682380687e-06	7.538513681158531e-05	0.0001851934047157806	-0.0003468087208782628	-3.205655730733975e-06	-1.602032278241983e-05	-1.576876069593042e-05
0.3103333333333327	1.49578410339521	0.09503775492386311	-0.06178695866625545	0.09365976401350119	-0.1627867736221054	-0.2268230020999908	-0.3524132943732055	-1.773239610951204	-3.666380414048396	-1.210041916928636	-9.038932698763184e-05	-2.702737341190343e-06	-0.0001126661358814328	0.0001562966735569395	-0.00014325073178518	-8.263750403061189e-05	2.709842916630861e-05	5.419434975416952e-05
0.3135999999999993	1.493898437992494	0.08971416667170271	-0.07415503503183166	0.0890550561371643	-0.162785463027143	-0.2268230020999908	-0.8765631743604563	-1.48753148332665	-3.728672899436	-1.735326654426741	0.0007487486684087062	5.405474682380687e-06	-0.000300717408574451	0.0001273999423980984	6.030725730790273e-05	-0.0001620693523304898	7.021718111503707e-05	0.0001241574602042695
0.316866666666666	1.490105549558652	0.08522558734600202	-0.08607732254736723	0.08297135241307226	-0.1627852756218236	-0.2268230020999908	-1.342780583378143	-1.32357765128522	-3.745648379188824	-1.709660848249668	-0.0003761296653415252	-2.702737341190343e-06	-4.144343266475127e-05	-4.425285036652782e-05	-8.583231844671193e-05	7.063583138726154e-05	-4.397914856032972e-05	1.719220645497824e-05
0.3201333333333327	1.485797446032565	0.0806551969733111	-0.09976968673407191	0.07971283514081542	-0.1627862355847476	-0.2268230020999908	-1.192000985938903	-1.537619879443118	-4.812393310355863	-0.005620663507218526	4.627831522543304e-05	5.405474682380687e-06	0.0002178305432449484	-0.0002159056431311541	-0.0002319718942013266	0.0003033410151050129	-0.0001581754782356965	-8.977304729431297e-05
0.3233999999999994	1.482309293751009	0.07575237638927911	-0.1160959422320459	0.08230630450318509	-0.1627820485049733	-0.2268230020999908	-1.062220956502396	-1.191117931785305	-4.556670695898329	1.164125518142994	0.001178389043264864	-2.702737341190343e-06	-5.146097061143628e-05	7.885214998996919e-05	0.0003073542815834596	-0.0001443881692597406	7.586938175857912e-05	4.661385636421455e-06
0.326666666666666	1.478082628219024	0.07465675512174941	-0.1254461314629057	0.08451347612682478	-0.1627872839353536	-0.2268230020999908	-1.644151955589479	0.7933184775991126	-0.5413323304900011	-0.2421294831378107	-0.005722605452973089	5.405474682380687e-06	-0.000320752484467821	0.0003736099431110924	0.0008466804573682458	-0.000592117353624494	0.0003099142417528548	9.909581856715588e-05
